[
  {
    "id": 1001,
    "nameTh": "เขตพระนคร",
    "nameEn": "Khet Phra Nakhon",
    "provinceId": 1
  },
  {
    "id": 1002,
    "nameTh": "เขตดุสิต",
    "nameEn": "Khet Dusit",
    "provinceId": 1
  },
  {
    "id": 1003,
    "nameTh": "เขตหนองจอก",
    "nameEn": "Khet Nong Chok",
    "provinceId": 1
  },
  {
    "id": 1004,
    "nameTh": "เขตบางรัก",
    "nameEn": "Khet Bang Rak",
    "provinceId": 1
  },
  {
    "id": 1005,
    "nameTh": "เขตบางเขน",
    "nameEn": "Khet Bang Khen",
    "provinceId": 1
  },
  {
    "id": 1006,
    "nameTh": "เขตบางกะปิ",
    "nameEn": "Khet Bang Kapi",
    "provinceId": 1
  },
  {
    "id": 1007,
    "nameTh": "เขตปทุมวัน",
    "nameEn": "Khet Pathum Wan",
    "provinceId": 1
  },
  {
    "id": 1008,
    "nameTh": "เขตป้อมปราบศัตรูพ่าย",
    "nameEn": "Khet Pom Prap Sattru Phai",
    "provinceId": 1
  },
  {
    "id": 1009,
    "nameTh": "เขตพระโขนง",
    "nameEn": "Khet Phra Khanong",
    "provinceId": 1
  },
  {
    "id": 1010,
    "nameTh": "เขตมีนบุรี",
    "nameEn": "Khet Min Buri",
    "provinceId": 1
  },
  {
    "id": 1011,
    "nameTh": "เขตลาดกระบัง",
    "nameEn": "Khet Lat Krabang",
    "provinceId": 1
  },
  {
    "id": 1012,
    "nameTh": "เขตยานนาวา",
    "nameEn": "Khet Yan Nawa",
    "provinceId": 1
  },
  {
    "id": 1013,
    "nameTh": "เขตสัมพันธวงศ์",
    "nameEn": "Khet Samphanthawong",
    "provinceId": 1
  },
  {
    "id": 1014,
    "nameTh": "เขตพญาไท",
    "nameEn": "Khet Phaya Thai",
    "provinceId": 1
  },
  {
    "id": 1015,
    "nameTh": "เขตธนบุรี",
    "nameEn": "Khet Thon Buri",
    "provinceId": 1
  },
  {
    "id": 1016,
    "nameTh": "เขตบางกอกใหญ่",
    "nameEn": "Khet Bangkok Yai",
    "provinceId": 1
  },
  {
    "id": 1017,
    "nameTh": "เขตห้วยขวาง",
    "nameEn": "Khet Huai Khwang",
    "provinceId": 1
  },
  {
    "id": 1018,
    "nameTh": "เขตคลองสาน",
    "nameEn": "Khet Khlong San",
    "provinceId": 1
  },
  {
    "id": 1019,
    "nameTh": "เขตตลิ่งชัน",
    "nameEn": "Khet Taling Chan",
    "provinceId": 1
  },
  {
    "id": 1020,
    "nameTh": "เขตบางกอกน้อย",
    "nameEn": "Khet Bangkok Noi",
    "provinceId": 1
  },
  {
    "id": 1021,
    "nameTh": "เขตบางขุนเทียน",
    "nameEn": "Khet Bang Khun Thian",
    "provinceId": 1
  },
  {
    "id": 1022,
    "nameTh": "เขตภาษีเจริญ",
    "nameEn": "Khet Phasi Charoen",
    "provinceId": 1
  },
  {
    "id": 1023,
    "nameTh": "เขตหนองแขม",
    "nameEn": "Khet Nong Khaem",
    "provinceId": 1
  },
  {
    "id": 1024,
    "nameTh": "เขตราษฎร์บูรณะ",
    "nameEn": "Khet Rat Burana",
    "provinceId": 1
  },
  {
    "id": 1025,
    "nameTh": "เขตบางพลัด",
    "nameEn": "Khet Bang Phlat",
    "provinceId": 1
  },
  {
    "id": 1026,
    "nameTh": "เขตดินแดง",
    "nameEn": "Khet Din Daeng",
    "provinceId": 1
  },
  {
    "id": 1027,
    "nameTh": "เขตบึงกุ่ม",
    "nameEn": "Khet Bueng Kum",
    "provinceId": 1
  },
  {
    "id": 1028,
    "nameTh": "เขตสาทร",
    "nameEn": "Khet Sathon",
    "provinceId": 1
  },
  {
    "id": 1029,
    "nameTh": "เขตบางซื่อ",
    "nameEn": "Khet Bang Sue",
    "provinceId": 1
  },
  {
    "id": 1030,
    "nameTh": "เขตจตุจักร",
    "nameEn": "Khet Chatuchak",
    "provinceId": 1
  },
  {
    "id": 1031,
    "nameTh": "เขตบางคอแหลม",
    "nameEn": "Khet Bang Kho Laem",
    "provinceId": 1
  },
  {
    "id": 1032,
    "nameTh": "เขตประเวศ",
    "nameEn": "Khet Prawet",
    "provinceId": 1
  },
  {
    "id": 1033,
    "nameTh": "เขตคลองเตย",
    "nameEn": "Khet Khlong Toei",
    "provinceId": 1
  },
  {
    "id": 1034,
    "nameTh": "เขตสวนหลวง",
    "nameEn": "Khet Suan Luang",
    "provinceId": 1
  },
  {
    "id": 1035,
    "nameTh": "เขตจอมทอง",
    "nameEn": "Khet Chom Thong",
    "provinceId": 1
  },
  {
    "id": 1036,
    "nameTh": "เขตดอนเมือง",
    "nameEn": "Khet Don Mueang",
    "provinceId": 1
  },
  {
    "id": 1037,
    "nameTh": "เขตราชเทวี",
    "nameEn": "Khet Ratchathewi",
    "provinceId": 1
  },
  {
    "id": 1038,
    "nameTh": "เขตลาดพร้าว",
    "nameEn": "Khet Lat Phrao",
    "provinceId": 1
  },
  {
    "id": 1039,
    "nameTh": "เขตวัฒนา",
    "nameEn": "Khet Watthana",
    "provinceId": 1
  },
  {
    "id": 1040,
    "nameTh": "เขตบางแค",
    "nameEn": "Khet Bang Khae",
    "provinceId": 1
  },
  {
    "id": 1041,
    "nameTh": "เขตหลักสี่",
    "nameEn": "Khet Lak Si",
    "provinceId": 1
  },
  {
    "id": 1042,
    "nameTh": "เขตสายไหม",
    "nameEn": "Khet Sai Mai",
    "provinceId": 1
  },
  {
    "id": 1043,
    "nameTh": "เขตคันนายาว",
    "nameEn": "Khet Khan Na Yao",
    "provinceId": 1
  },
  {
    "id": 1044,
    "nameTh": "เขตสะพานสูง",
    "nameEn": "Khet Saphan Sung",
    "provinceId": 1
  },
  {
    "id": 1045,
    "nameTh": "เขตวังทองหลาง",
    "nameEn": "Khet Wang Thonglang",
    "provinceId": 1
  },
  {
    "id": 1046,
    "nameTh": "เขตคลองสามวา",
    "nameEn": "Khet Khlong Sam Wa",
    "provinceId": 1
  },
  {
    "id": 1047,
    "nameTh": "เขตบางนา",
    "nameEn": "Khet Bang Na",
    "provinceId": 1
  },
  {
    "id": 1048,
    "nameTh": "เขตทวีวัฒนา",
    "nameEn": "Khet Thawi Watthana",
    "provinceId": 1
  },
  {
    "id": 1049,
    "nameTh": "เขตทุ่งครุ",
    "nameEn": "Khet Thung Khru",
    "provinceId": 1
  },
  {
    "id": 1050,
    "nameTh": "เขตบางบอน",
    "nameEn": "Khet Bang Bon",
    "provinceId": 1
  },
  {
    "id": 1101,
    "nameTh": "เมืองสมุทรปราการ",
    "nameEn": "Mueang Samut Prakan",
    "provinceId": 2
  },
  {
    "id": 1102,
    "nameTh": "บางบ่อ",
    "nameEn": "Bang Bo",
    "provinceId": 2
  },
  {
    "id": 1103,
    "nameTh": "บางพลี",
    "nameEn": "Bang Phli",
    "provinceId": 2
  },
  {
    "id": 1104,
    "nameTh": "พระประแดง",
    "nameEn": "Phra Pradaeng",
    "provinceId": 2
  },
  {
    "id": 1105,
    "nameTh": "พระสมุทรเจดีย์",
    "nameEn": "Phra Samut Chedi",
    "provinceId": 2
  },
  {
    "id": 1106,
    "nameTh": "บางเสาธง",
    "nameEn": "Bang Sao Thong",
    "provinceId": 2
  },
  {
    "id": 1201,
    "nameTh": "เมืองนนทบุรี",
    "nameEn": "Mueang Nonthaburi",
    "provinceId": 3
  },
  {
    "id": 1202,
    "nameTh": "บางกรวย",
    "nameEn": "Bang Kruai",
    "provinceId": 3
  },
  {
    "id": 1203,
    "nameTh": "บางใหญ่",
    "nameEn": "Bang Yai",
    "provinceId": 3
  },
  {
    "id": 1204,
    "nameTh": "บางบัวทอง",
    "nameEn": "Bang Bua Thong",
    "provinceId": 3
  },
  {
    "id": 1205,
    "nameTh": "ไทรน้อย",
    "nameEn": "Sai Noi",
    "provinceId": 3
  },
  {
    "id": 1206,
    "nameTh": "ปากเกร็ด",
    "nameEn": "Pak Kret",
    "provinceId": 3
  },
  {
    "id": 1301,
    "nameTh": "เมืองปทุมธานี",
    "nameEn": "Mueang Pathum Thani",
    "provinceId": 4
  },
  {
    "id": 1302,
    "nameTh": "คลองหลวง",
    "nameEn": "Khlong Luang",
    "provinceId": 4
  },
  {
    "id": 1303,
    "nameTh": "ธัญบุรี",
    "nameEn": "Thanyaburi",
    "provinceId": 4
  },
  {
    "id": 1304,
    "nameTh": "หนองเสือ",
    "nameEn": "Nong Suea",
    "provinceId": 4
  },
  {
    "id": 1305,
    "nameTh": "ลาดหลุมแก้ว",
    "nameEn": "Lat Lum Kaeo",
    "provinceId": 4
  },
  {
    "id": 1306,
    "nameTh": "ลำลูกกา",
    "nameEn": "Lam Luk Ka",
    "provinceId": 4
  },
  {
    "id": 1307,
    "nameTh": "สามโคก",
    "nameEn": "Sam Khok",
    "provinceId": 4
  },
  {
    "id": 1401,
    "nameTh": "พระนครศรีอยุธยา",
    "nameEn": "Phra Nakhon Si Ayutthaya",
    "provinceId": 5
  },
  {
    "id": 1402,
    "nameTh": "ท่าเรือ",
    "nameEn": "Tha Ruea",
    "provinceId": 5
  },
  {
    "id": 1403,
    "nameTh": "นครหลวง",
    "nameEn": "Nakhon Luang",
    "provinceId": 5
  },
  {
    "id": 1404,
    "nameTh": "บางไทร",
    "nameEn": "Bang Sai",
    "provinceId": 5
  },
  {
    "id": 1405,
    "nameTh": "บางบาล",
    "nameEn": "Bang Ban",
    "provinceId": 5
  },
  {
    "id": 1406,
    "nameTh": "บางปะอิน",
    "nameEn": "Bang Pa-in",
    "provinceId": 5
  },
  {
    "id": 1407,
    "nameTh": "บางปะหัน",
    "nameEn": "Bang Pahan",
    "provinceId": 5
  },
  {
    "id": 1408,
    "nameTh": "ผักไห่",
    "nameEn": "Phak Hai",
    "provinceId": 5
  },
  {
    "id": 1409,
    "nameTh": "ภาชี",
    "nameEn": "Phachi",
    "provinceId": 5
  },
  {
    "id": 1410,
    "nameTh": "ลาดบัวหลวง",
    "nameEn": "Lat Bua Luang",
    "provinceId": 5
  },
  {
    "id": 1411,
    "nameTh": "วังน้อย",
    "nameEn": "Wang Noi",
    "provinceId": 5
  },
  {
    "id": 1412,
    "nameTh": "เสนา",
    "nameEn": "Sena",
    "provinceId": 5
  },
  {
    "id": 1413,
    "nameTh": "บางซ้าย",
    "nameEn": "Bang Sai",
    "provinceId": 5
  },
  {
    "id": 1414,
    "nameTh": "อุทัย",
    "nameEn": "Uthai",
    "provinceId": 5
  },
  {
    "id": 1415,
    "nameTh": "มหาราช",
    "nameEn": "Maha Rat",
    "provinceId": 5
  },
  {
    "id": 1416,
    "nameTh": "บ้านแพรก",
    "nameEn": "Ban Phraek",
    "provinceId": 5
  },
  {
    "id": 1501,
    "nameTh": "เมืองอ่างทอง",
    "nameEn": "Mueang Ang Thong",
    "provinceId": 6
  },
  {
    "id": 1502,
    "nameTh": "ไชโย",
    "nameEn": "Chaiyo",
    "provinceId": 6
  },
  {
    "id": 1503,
    "nameTh": "ป่าโมก",
    "nameEn": "Pa Mok",
    "provinceId": 6
  },
  {
    "id": 1504,
    "nameTh": "โพธิ์ทอง",
    "nameEn": "Pho Thong",
    "provinceId": 6
  },
  {
    "id": 1505,
    "nameTh": "แสวงหา",
    "nameEn": "Sawaeng Ha",
    "provinceId": 6
  },
  {
    "id": 1506,
    "nameTh": "วิเศษชัยชาญ",
    "nameEn": "Wiset Chai Chan",
    "provinceId": 6
  },
  {
    "id": 1507,
    "nameTh": "สามโก้",
    "nameEn": "Samko",
    "provinceId": 6
  },
  {
    "id": 1601,
    "nameTh": "เมืองลพบุรี",
    "nameEn": "Mueang Lop Buri",
    "provinceId": 7
  },
  {
    "id": 1602,
    "nameTh": "พัฒนานิคม",
    "nameEn": "Phatthana Nikhom",
    "provinceId": 7
  },
  {
    "id": 1603,
    "nameTh": "โคกสำโรง",
    "nameEn": "Khok Samrong",
    "provinceId": 7
  },
  {
    "id": 1604,
    "nameTh": "ชัยบาดาล",
    "nameEn": "Chai Badan",
    "provinceId": 7
  },
  {
    "id": 1605,
    "nameTh": "ท่าวุ้ง",
    "nameEn": "Tha Wung",
    "provinceId": 7
  },
  {
    "id": 1606,
    "nameTh": "บ้านหมี่",
    "nameEn": "Ban Mi",
    "provinceId": 7
  },
  {
    "id": 1607,
    "nameTh": "ท่าหลวง",
    "nameEn": "Tha Luang",
    "provinceId": 7
  },
  {
    "id": 1608,
    "nameTh": "สระโบสถ์",
    "nameEn": "Sa Bot",
    "provinceId": 7
  },
  {
    "id": 1609,
    "nameTh": "โคกเจริญ",
    "nameEn": "Khok Charoen",
    "provinceId": 7
  },
  {
    "id": 1610,
    "nameTh": "ลำสนธิ",
    "nameEn": "Lam Sonthi",
    "provinceId": 7
  },
  {
    "id": 1611,
    "nameTh": "หนองม่วง",
    "nameEn": "Nong Muang",
    "provinceId": 7
  },
  {
    "id": 1701,
    "nameTh": "เมืองสิงห์บุรี",
    "nameEn": "Mueang Sing Buri",
    "provinceId": 8
  },
  {
    "id": 1702,
    "nameTh": "บางระจัน",
    "nameEn": "Bang Rachan",
    "provinceId": 8
  },
  {
    "id": 1703,
    "nameTh": "ค่ายบางระจัน",
    "nameEn": "Khai Bang Rachan",
    "provinceId": 8
  },
  {
    "id": 1704,
    "nameTh": "พรหมบุรี",
    "nameEn": "Phrom Buri",
    "provinceId": 8
  },
  {
    "id": 1705,
    "nameTh": "ท่าช้าง",
    "nameEn": "Tha Chang",
    "provinceId": 8
  },
  {
    "id": 1706,
    "nameTh": "อินทร์บุรี",
    "nameEn": "In Buri",
    "provinceId": 8
  },
  {
    "id": 1801,
    "nameTh": "เมืองชัยนาท",
    "nameEn": "Mueang Chai Nat",
    "provinceId": 9
  },
  {
    "id": 1802,
    "nameTh": "มโนรมย์",
    "nameEn": "Manorom",
    "provinceId": 9
  },
  {
    "id": 1803,
    "nameTh": "วัดสิงห์",
    "nameEn": "Wat Sing",
    "provinceId": 9
  },
  {
    "id": 1804,
    "nameTh": "สรรพยา",
    "nameEn": "Sapphaya",
    "provinceId": 9
  },
  {
    "id": 1805,
    "nameTh": "สรรคบุรี",
    "nameEn": "Sankhaburi",
    "provinceId": 9
  },
  {
    "id": 1806,
    "nameTh": "หันคา",
    "nameEn": "Hankha",
    "provinceId": 9
  },
  {
    "id": 1807,
    "nameTh": "หนองมะโมง",
    "nameEn": "Nong Mamong",
    "provinceId": 9
  },
  {
    "id": 1808,
    "nameTh": "เนินขาม",
    "nameEn": "Noen Kham",
    "provinceId": 9
  },
  {
    "id": 1901,
    "nameTh": "เมืองสระบุรี",
    "nameEn": "Mueang Saraburi",
    "provinceId": 10
  },
  {
    "id": 1902,
    "nameTh": "แก่งคอย",
    "nameEn": "Kaeng Khoi",
    "provinceId": 10
  },
  {
    "id": 1903,
    "nameTh": "หนองแค",
    "nameEn": "Nong Khae",
    "provinceId": 10
  },
  {
    "id": 1904,
    "nameTh": "วิหารแดง",
    "nameEn": "Wihan Daeng",
    "provinceId": 10
  },
  {
    "id": 1905,
    "nameTh": "หนองแซง",
    "nameEn": "Nong Saeng",
    "provinceId": 10
  },
  {
    "id": 1906,
    "nameTh": "บ้านหมอ",
    "nameEn": "Ban Mo",
    "provinceId": 10
  },
  {
    "id": 1907,
    "nameTh": "ดอนพุด",
    "nameEn": "Don Phut",
    "provinceId": 10
  },
  {
    "id": 1908,
    "nameTh": "หนองโดน",
    "nameEn": "Nong Don",
    "provinceId": 10
  },
  {
    "id": 1909,
    "nameTh": "พระพุทธบาท",
    "nameEn": "Phra Phutthabat",
    "provinceId": 10
  },
  {
    "id": 1910,
    "nameTh": "เสาไห้",
    "nameEn": "Sao Hai",
    "provinceId": 10
  },
  {
    "id": 1911,
    "nameTh": "มวกเหล็ก",
    "nameEn": "Muak Lek",
    "provinceId": 10
  },
  {
    "id": 1912,
    "nameTh": "วังม่วง",
    "nameEn": "Wang Muang",
    "provinceId": 10
  },
  {
    "id": 1913,
    "nameTh": "เฉลิมพระเกียรติ",
    "nameEn": "Chaloem Phra Kiat",
    "provinceId": 10
  },
  {
    "id": 2001,
    "nameTh": "เมืองชลบุรี",
    "nameEn": "Mueang Chon Buri",
    "provinceId": 11
  },
  {
    "id": 2002,
    "nameTh": "บ้านบึง",
    "nameEn": "Ban Bueng",
    "provinceId": 11
  },
  {
    "id": 2003,
    "nameTh": "หนองใหญ่",
    "nameEn": "Nong Yai",
    "provinceId": 11
  },
  {
    "id": 2004,
    "nameTh": "บางละมุง",
    "nameEn": "Bang Lamung",
    "provinceId": 11
  },
  {
    "id": 2005,
    "nameTh": "พานทอง",
    "nameEn": "Phan Thong",
    "provinceId": 11
  },
  {
    "id": 2006,
    "nameTh": "พนัสนิคม",
    "nameEn": "Phanat Nikhom",
    "provinceId": 11
  },
  {
    "id": 2007,
    "nameTh": "ศรีราชา",
    "nameEn": "Si Racha",
    "provinceId": 11
  },
  {
    "id": 2008,
    "nameTh": "เกาะสีชัง",
    "nameEn": "Ko Sichang",
    "provinceId": 11
  },
  {
    "id": 2009,
    "nameTh": "สัตหีบ",
    "nameEn": "Sattahip",
    "provinceId": 11
  },
  {
    "id": 2010,
    "nameTh": "บ่อทอง",
    "nameEn": "Bo Thong",
    "provinceId": 11
  },
  {
    "id": 2011,
    "nameTh": "เกาะจันทร์",
    "nameEn": "Ko Chan",
    "provinceId": 11
  },
  {
    "id": 2101,
    "nameTh": "เมืองระยอง",
    "nameEn": "Mueang Rayong",
    "provinceId": 12
  },
  {
    "id": 2102,
    "nameTh": "บ้านฉาง",
    "nameEn": "Ban Chang",
    "provinceId": 12
  },
  {
    "id": 2103,
    "nameTh": "แกลง",
    "nameEn": "Klaeng",
    "provinceId": 12
  },
  {
    "id": 2104,
    "nameTh": "วังจันทร์",
    "nameEn": "Wang Chan",
    "provinceId": 12
  },
  {
    "id": 2105,
    "nameTh": "บ้านค่าย",
    "nameEn": "Ban Khai",
    "provinceId": 12
  },
  {
    "id": 2106,
    "nameTh": "ปลวกแดง",
    "nameEn": "Pluak Daeng",
    "provinceId": 12
  },
  {
    "id": 2107,
    "nameTh": "เขาชะเมา",
    "nameEn": "Khao Chamao",
    "provinceId": 12
  },
  {
    "id": 2108,
    "nameTh": "นิคมพัฒนา",
    "nameEn": "Nikhom Phatthana",
    "provinceId": 12
  },
  {
    "id": 2201,
    "nameTh": "เมืองจันทบุรี",
    "nameEn": "Mueang Chanthaburi",
    "provinceId": 13
  },
  {
    "id": 2202,
    "nameTh": "ขลุง",
    "nameEn": "Khlung",
    "provinceId": 13
  },
  {
    "id": 2203,
    "nameTh": "ท่าใหม่",
    "nameEn": "Tha Mai",
    "provinceId": 13
  },
  {
    "id": 2204,
    "nameTh": "โป่งน้ำร้อน",
    "nameEn": "Pong Nam Ron",
    "provinceId": 13
  },
  {
    "id": 2205,
    "nameTh": "มะขาม",
    "nameEn": "Makham",
    "provinceId": 13
  },
  {
    "id": 2206,
    "nameTh": "แหลมสิงห์",
    "nameEn": "Laem Sing",
    "provinceId": 13
  },
  {
    "id": 2207,
    "nameTh": "สอยดาว",
    "nameEn": "Soi Dao",
    "provinceId": 13
  },
  {
    "id": 2208,
    "nameTh": "แก่งหางแมว",
    "nameEn": "Kaeng Hang Maeo",
    "provinceId": 13
  },
  {
    "id": 2209,
    "nameTh": "นายายอาม",
    "nameEn": "Na Yai Am",
    "provinceId": 13
  },
  {
    "id": 2210,
    "nameTh": "เขาคิชฌกูฏ",
    "nameEn": "Khoa Khitchakut",
    "provinceId": 13
  },
  {
    "id": 2301,
    "nameTh": "เมืองตราด",
    "nameEn": "Mueang Trat",
    "provinceId": 14
  },
  {
    "id": 2302,
    "nameTh": "คลองใหญ่",
    "nameEn": "Khlong Yai",
    "provinceId": 14
  },
  {
    "id": 2303,
    "nameTh": "เขาสมิง",
    "nameEn": "Khao Saming",
    "provinceId": 14
  },
  {
    "id": 2304,
    "nameTh": "บ่อไร่",
    "nameEn": "Bo Rai",
    "provinceId": 14
  },
  {
    "id": 2305,
    "nameTh": "แหลมงอบ",
    "nameEn": "Laem Ngop",
    "provinceId": 14
  },
  {
    "id": 2306,
    "nameTh": "เกาะกูด",
    "nameEn": "Ko Kut",
    "provinceId": 14
  },
  {
    "id": 2307,
    "nameTh": "เกาะช้าง",
    "nameEn": "Ko Chang",
    "provinceId": 14
  },
  {
    "id": 2401,
    "nameTh": "เมืองฉะเชิงเทรา",
    "nameEn": "Mueang Chachoengsao",
    "provinceId": 15
  },
  {
    "id": 2402,
    "nameTh": "บางคล้า",
    "nameEn": "Bang Khla",
    "provinceId": 15
  },
  {
    "id": 2403,
    "nameTh": "บางน้ำเปรี้ยว",
    "nameEn": "Bang Nam Priao",
    "provinceId": 15
  },
  {
    "id": 2404,
    "nameTh": "บางปะกง",
    "nameEn": "Bang Pakong",
    "provinceId": 15
  },
  {
    "id": 2405,
    "nameTh": "บ้านโพธิ์",
    "nameEn": "Ban Pho",
    "provinceId": 15
  },
  {
    "id": 2406,
    "nameTh": "พนมสารคาม",
    "nameEn": "Phanom Sarakham",
    "provinceId": 15
  },
  {
    "id": 2407,
    "nameTh": "ราชสาส์น",
    "nameEn": "Ratchasan",
    "provinceId": 15
  },
  {
    "id": 2408,
    "nameTh": "สนามชัยเขต",
    "nameEn": "Sanam Chai Khet",
    "provinceId": 15
  },
  {
    "id": 2409,
    "nameTh": "แปลงยาว",
    "nameEn": "Plaeng Yao",
    "provinceId": 15
  },
  {
    "id": 2410,
    "nameTh": "ท่าตะเกียบ",
    "nameEn": "Tha Takiap",
    "provinceId": 15
  },
  {
    "id": 2411,
    "nameTh": "คลองเขื่อน",
    "nameEn": "Khlong Khuean",
    "provinceId": 15
  },
  {
    "id": 2501,
    "nameTh": "เมืองปราจีนบุรี",
    "nameEn": "Mueang Prachin Buri",
    "provinceId": 16
  },
  {
    "id": 2502,
    "nameTh": "กบินทร์บุรี",
    "nameEn": "Kabin Buri",
    "provinceId": 16
  },
  {
    "id": 2503,
    "nameTh": "นาดี",
    "nameEn": "Na Di",
    "provinceId": 16
  },
  {
    "id": 2506,
    "nameTh": "บ้านสร้าง",
    "nameEn": "Ban Sang",
    "provinceId": 16
  },
  {
    "id": 2507,
    "nameTh": "ประจันตคาม",
    "nameEn": "Prachantakham",
    "provinceId": 16
  },
  {
    "id": 2508,
    "nameTh": "ศรีมหาโพธิ",
    "nameEn": "Si Maha Phot",
    "provinceId": 16
  },
  {
    "id": 2509,
    "nameTh": "ศรีมโหสถ",
    "nameEn": "Si Mahosot",
    "provinceId": 16
  },
  {
    "id": 2601,
    "nameTh": "เมืองนครนายก",
    "nameEn": "Mueang Nakhon Nayok",
    "provinceId": 17
  },
  {
    "id": 2602,
    "nameTh": "ปากพลี",
    "nameEn": "Pak Phli",
    "provinceId": 17
  },
  {
    "id": 2603,
    "nameTh": "บ้านนา",
    "nameEn": "Ban Na",
    "provinceId": 17
  },
  {
    "id": 2604,
    "nameTh": "องครักษ์",
    "nameEn": "Ongkharak",
    "provinceId": 17
  },
  {
    "id": 2701,
    "nameTh": "เมืองสระแก้ว",
    "nameEn": "Mueang Sa Kaeo",
    "provinceId": 18
  },
  {
    "id": 2702,
    "nameTh": "คลองหาด",
    "nameEn": "Khlong Hat",
    "provinceId": 18
  },
  {
    "id": 2703,
    "nameTh": "ตาพระยา",
    "nameEn": "Ta Phraya",
    "provinceId": 18
  },
  {
    "id": 2704,
    "nameTh": "วังน้ำเย็น",
    "nameEn": "Wang Nam Yen",
    "provinceId": 18
  },
  {
    "id": 2705,
    "nameTh": "วัฒนานคร",
    "nameEn": "Watthana Nakhon",
    "provinceId": 18
  },
  {
    "id": 2706,
    "nameTh": "อรัญประเทศ",
    "nameEn": "Aranyaprathet",
    "provinceId": 18
  },
  {
    "id": 2707,
    "nameTh": "เขาฉกรรจ์",
    "nameEn": "Khao Chakan",
    "provinceId": 18
  },
  {
    "id": 2708,
    "nameTh": "โคกสูง",
    "nameEn": "Khok Sung",
    "provinceId": 18
  },
  {
    "id": 2709,
    "nameTh": "วังสมบูรณ์",
    "nameEn": "Wang Sombun",
    "provinceId": 18
  },
  {
    "id": 3001,
    "nameTh": "เมืองนครราชสีมา",
    "nameEn": "Mueang Nakhon Ratchasima",
    "provinceId": 19
  },
  {
    "id": 3002,
    "nameTh": "ครบุรี",
    "nameEn": "Khon Buri",
    "provinceId": 19
  },
  {
    "id": 3003,
    "nameTh": "เสิงสาง",
    "nameEn": "Soeng Sang",
    "provinceId": 19
  },
  {
    "id": 3004,
    "nameTh": "คง",
    "nameEn": "Khong",
    "provinceId": 19
  },
  {
    "id": 3005,
    "nameTh": "บ้านเหลื่อม",
    "nameEn": "Ban Lueam",
    "provinceId": 19
  },
  {
    "id": 3006,
    "nameTh": "จักราช",
    "nameEn": "Chakkarat",
    "provinceId": 19
  },
  {
    "id": 3007,
    "nameTh": "โชคชัย",
    "nameEn": "Chok Chai",
    "provinceId": 19
  },
  {
    "id": 3008,
    "nameTh": "ด่านขุนทด",
    "nameEn": "Dan Khun Thot",
    "provinceId": 19
  },
  {
    "id": 3009,
    "nameTh": "โนนไทย",
    "nameEn": "Non Thai",
    "provinceId": 19
  },
  {
    "id": 3010,
    "nameTh": "โนนสูง",
    "nameEn": "Non Sung",
    "provinceId": 19
  },
  {
    "id": 3011,
    "nameTh": "ขามสะแกแสง",
    "nameEn": "Kham Sakaesaeng",
    "provinceId": 19
  },
  {
    "id": 3012,
    "nameTh": "บัวใหญ่",
    "nameEn": "Bua Yai",
    "provinceId": 19
  },
  {
    "id": 3013,
    "nameTh": "ประทาย",
    "nameEn": "Prathai",
    "provinceId": 19
  },
  {
    "id": 3014,
    "nameTh": "ปักธงชัย",
    "nameEn": "Pak Thong Chai",
    "provinceId": 19
  },
  {
    "id": 3015,
    "nameTh": "พิมาย",
    "nameEn": "Phimai",
    "provinceId": 19
  },
  {
    "id": 3016,
    "nameTh": "ห้วยแถลง",
    "nameEn": "Huai Thalaeng",
    "provinceId": 19
  },
  {
    "id": 3017,
    "nameTh": "ชุมพวง",
    "nameEn": "Chum Phuang",
    "provinceId": 19
  },
  {
    "id": 3018,
    "nameTh": "สูงเนิน",
    "nameEn": "Sung Noen",
    "provinceId": 19
  },
  {
    "id": 3019,
    "nameTh": "ขามทะเลสอ",
    "nameEn": "Kham Thale So",
    "provinceId": 19
  },
  {
    "id": 3020,
    "nameTh": "สีคิ้ว",
    "nameEn": "Sikhio",
    "provinceId": 19
  },
  {
    "id": 3021,
    "nameTh": "ปากช่อง",
    "nameEn": "Pak Chong",
    "provinceId": 19
  },
  {
    "id": 3022,
    "nameTh": "หนองบุญมาก",
    "nameEn": "Nong Bunnak",
    "provinceId": 19
  },
  {
    "id": 3023,
    "nameTh": "แก้งสนามนาง",
    "nameEn": "Kaeng Sanam Nang",
    "provinceId": 19
  },
  {
    "id": 3024,
    "nameTh": "โนนแดง",
    "nameEn": "Non Daeng",
    "provinceId": 19
  },
  {
    "id": 3025,
    "nameTh": "วังน้ำเขียว",
    "nameEn": "Wang Nam Khiao",
    "provinceId": 19
  },
  {
    "id": 3026,
    "nameTh": "เทพารักษ์",
    "nameEn": "Thepharak",
    "provinceId": 19
  },
  {
    "id": 3027,
    "nameTh": "เมืองยาง",
    "nameEn": "Mueang Yang",
    "provinceId": 19
  },
  {
    "id": 3028,
    "nameTh": "พระทองคำ",
    "nameEn": "Phra Thong Kham",
    "provinceId": 19
  },
  {
    "id": 3029,
    "nameTh": "ลำทะเมนชัย",
    "nameEn": "Lam Thamenchai",
    "provinceId": 19
  },
  {
    "id": 3030,
    "nameTh": "บัวลาย",
    "nameEn": "Bua Lai",
    "provinceId": 19
  },
  {
    "id": 3031,
    "nameTh": "สีดา",
    "nameEn": "Sida",
    "provinceId": 19
  },
  {
    "id": 3032,
    "nameTh": "เฉลิมพระเกียรติ",
    "nameEn": "Chaloem Phra Kiat",
    "provinceId": 19
  },
  {
    "id": 3101,
    "nameTh": "เมืองบุรีรัมย์",
    "nameEn": "Mueang Buri Ram",
    "provinceId": 20
  },
  {
    "id": 3102,
    "nameTh": "คูเมือง",
    "nameEn": "Khu Mueang",
    "provinceId": 20
  },
  {
    "id": 3103,
    "nameTh": "กระสัง",
    "nameEn": "Krasang",
    "provinceId": 20
  },
  {
    "id": 3104,
    "nameTh": "นางรอง",
    "nameEn": "Nang Rong",
    "provinceId": 20
  },
  {
    "id": 3105,
    "nameTh": "หนองกี่",
    "nameEn": "Nong Ki",
    "provinceId": 20
  },
  {
    "id": 3106,
    "nameTh": "ละหานทราย",
    "nameEn": "Lahan Sai",
    "provinceId": 20
  },
  {
    "id": 3107,
    "nameTh": "ประโคนชัย",
    "nameEn": "Prakhon Chai",
    "provinceId": 20
  },
  {
    "id": 3108,
    "nameTh": "บ้านกรวด",
    "nameEn": "Ban Kruat",
    "provinceId": 20
  },
  {
    "id": 3109,
    "nameTh": "พุทไธสง",
    "nameEn": "Phutthaisong",
    "provinceId": 20
  },
  {
    "id": 3110,
    "nameTh": "ลำปลายมาศ",
    "nameEn": "Lam Plai Mat",
    "provinceId": 20
  },
  {
    "id": 3111,
    "nameTh": "สตึก",
    "nameEn": "Satuek",
    "provinceId": 20
  },
  {
    "id": 3112,
    "nameTh": "ปะคำ",
    "nameEn": "Pakham",
    "provinceId": 20
  },
  {
    "id": 3113,
    "nameTh": "นาโพธิ์",
    "nameEn": "Na Pho",
    "provinceId": 20
  },
  {
    "id": 3114,
    "nameTh": "หนองหงส์",
    "nameEn": "Nong Hong",
    "provinceId": 20
  },
  {
    "id": 3115,
    "nameTh": "พลับพลาชัย",
    "nameEn": "Phlapphla Chai",
    "provinceId": 20
  },
  {
    "id": 3116,
    "nameTh": "ห้วยราช",
    "nameEn": "Huai Rat",
    "provinceId": 20
  },
  {
    "id": 3117,
    "nameTh": "โนนสุวรรณ",
    "nameEn": "Non Suwan",
    "provinceId": 20
  },
  {
    "id": 3118,
    "nameTh": "ชำนิ",
    "nameEn": "Chamni",
    "provinceId": 20
  },
  {
    "id": 3119,
    "nameTh": "บ้านใหม่ไชยพจน์",
    "nameEn": "Ban Mai Chaiyaphot",
    "provinceId": 20
  },
  {
    "id": 3120,
    "nameTh": "โนนดินแดง",
    "nameEn": "Din Daeng",
    "provinceId": 20
  },
  {
    "id": 3121,
    "nameTh": "บ้านด่าน",
    "nameEn": "Ban Dan",
    "provinceId": 20
  },
  {
    "id": 3122,
    "nameTh": "แคนดง",
    "nameEn": "Khaen Dong",
    "provinceId": 20
  },
  {
    "id": 3123,
    "nameTh": "เฉลิมพระเกียรติ",
    "nameEn": "Chaloem Phra Kiat",
    "provinceId": 20
  },
  {
    "id": 3201,
    "nameTh": "เมืองสุรินทร์",
    "nameEn": "Mueang Surin",
    "provinceId": 21
  },
  {
    "id": 3202,
    "nameTh": "ชุมพลบุรี",
    "nameEn": "Chumphon Buri",
    "provinceId": 21
  },
  {
    "id": 3203,
    "nameTh": "ท่าตูม",
    "nameEn": "Tha Tum",
    "provinceId": 21
  },
  {
    "id": 3204,
    "nameTh": "จอมพระ",
    "nameEn": "Chom Phra",
    "provinceId": 21
  },
  {
    "id": 3205,
    "nameTh": "ปราสาท",
    "nameEn": "Prasat",
    "provinceId": 21
  },
  {
    "id": 3206,
    "nameTh": "กาบเชิง",
    "nameEn": "Kap Choeng",
    "provinceId": 21
  },
  {
    "id": 3207,
    "nameTh": "รัตนบุรี",
    "nameEn": "Rattanaburi",
    "provinceId": 21
  },
  {
    "id": 3208,
    "nameTh": "สนม",
    "nameEn": "Sanom",
    "provinceId": 21
  },
  {
    "id": 3209,
    "nameTh": "ศีขรภูมิ",
    "nameEn": "Sikhoraphum",
    "provinceId": 21
  },
  {
    "id": 3210,
    "nameTh": "สังขะ",
    "nameEn": "Sangkha",
    "provinceId": 21
  },
  {
    "id": 3211,
    "nameTh": "ลำดวน",
    "nameEn": "Lamduan",
    "provinceId": 21
  },
  {
    "id": 3212,
    "nameTh": "สำโรงทาบ",
    "nameEn": "Samrong Thap",
    "provinceId": 21
  },
  {
    "id": 3213,
    "nameTh": "บัวเชด",
    "nameEn": "Buachet",
    "provinceId": 21
  },
  {
    "id": 3214,
    "nameTh": "พนมดงรัก",
    "nameEn": "Phanom Dong Rak",
    "provinceId": 21
  },
  {
    "id": 3215,
    "nameTh": "ศรีณรงค์",
    "nameEn": "Si Narong",
    "provinceId": 21
  },
  {
    "id": 3216,
    "nameTh": "เขวาสินรินทร์",
    "nameEn": "Khwao Sinarin",
    "provinceId": 21
  },
  {
    "id": 3217,
    "nameTh": "โนนนารายณ์",
    "nameEn": "Non Narai",
    "provinceId": 21
  },
  {
    "id": 3301,
    "nameTh": "เมืองศรีสะเกษ",
    "nameEn": "Mueang Si Sa Ket",
    "provinceId": 22
  },
  {
    "id": 3302,
    "nameTh": "ยางชุมน้อย",
    "nameEn": "Yang Chum Noi",
    "provinceId": 22
  },
  {
    "id": 3303,
    "nameTh": "กันทรารมย์",
    "nameEn": "Kanthararom",
    "provinceId": 22
  },
  {
    "id": 3304,
    "nameTh": "กันทรลักษ์",
    "nameEn": "Kantharalak",
    "provinceId": 22
  },
  {
    "id": 3305,
    "nameTh": "ขุขันธ์",
    "nameEn": "Khukhan",
    "provinceId": 22
  },
  {
    "id": 3306,
    "nameTh": "ไพรบึง",
    "nameEn": "Phrai Bueng",
    "provinceId": 22
  },
  {
    "id": 3307,
    "nameTh": "ปรางค์กู่",
    "nameEn": "Prang Ku",
    "provinceId": 22
  },
  {
    "id": 3308,
    "nameTh": "ขุนหาญ",
    "nameEn": "Khun Han",
    "provinceId": 22
  },
  {
    "id": 3309,
    "nameTh": "ราษีไศล",
    "nameEn": "Rasi Salai",
    "provinceId": 22
  },
  {
    "id": 3310,
    "nameTh": "อุทุมพรพิสัย",
    "nameEn": "Uthumphon Phisai",
    "provinceId": 22
  },
  {
    "id": 3311,
    "nameTh": "บึงบูรพ์",
    "nameEn": "Bueng Bun",
    "provinceId": 22
  },
  {
    "id": 3312,
    "nameTh": "ห้วยทับทัน",
    "nameEn": "Huai Thap Than",
    "provinceId": 22
  },
  {
    "id": 3313,
    "nameTh": "โนนคูณ",
    "nameEn": "Non Khun",
    "provinceId": 22
  },
  {
    "id": 3314,
    "nameTh": "ศรีรัตนะ",
    "nameEn": "Si Rattana",
    "provinceId": 22
  },
  {
    "id": 3315,
    "nameTh": "น้ำเกลี้ยง",
    "nameEn": "Nam Kliang",
    "provinceId": 22
  },
  {
    "id": 3316,
    "nameTh": "วังหิน",
    "nameEn": "Wang Hin",
    "provinceId": 22
  },
  {
    "id": 3317,
    "nameTh": "ภูสิงห์",
    "nameEn": "Phu Sing",
    "provinceId": 22
  },
  {
    "id": 3318,
    "nameTh": "เมืองจันทร์",
    "nameEn": "Mueang Chan",
    "provinceId": 22
  },
  {
    "id": 3319,
    "nameTh": "เบญจลักษ์",
    "nameEn": "Benchalak",
    "provinceId": 22
  },
  {
    "id": 3320,
    "nameTh": "พยุห์",
    "nameEn": "Phayu",
    "provinceId": 22
  },
  {
    "id": 3321,
    "nameTh": "โพธิ์ศรีสุวรรณ",
    "nameEn": "Pho Si Suwan",
    "provinceId": 22
  },
  {
    "id": 3322,
    "nameTh": "ศิลาลาด",
    "nameEn": "Sila Lat",
    "provinceId": 22
  },
  {
    "id": 3401,
    "nameTh": "เมืองอุบลราชธานี",
    "nameEn": "Mueang Ubon Ratchathani",
    "provinceId": 23
  },
  {
    "id": 3402,
    "nameTh": "ศรีเมืองใหม่",
    "nameEn": "Si Mueang Mai",
    "provinceId": 23
  },
  {
    "id": 3403,
    "nameTh": "โขงเจียม",
    "nameEn": "Khong Chiam",
    "provinceId": 23
  },
  {
    "id": 3404,
    "nameTh": "เขื่องใน",
    "nameEn": "Khueang Nai",
    "provinceId": 23
  },
  {
    "id": 3405,
    "nameTh": "เขมราฐ",
    "nameEn": "Khemarat",
    "provinceId": 23
  },
  {
    "id": 3407,
    "nameTh": "เดชอุดม",
    "nameEn": "Det Udom",
    "provinceId": 23
  },
  {
    "id": 3408,
    "nameTh": "นาจะหลวย",
    "nameEn": "Na Chaluai",
    "provinceId": 23
  },
  {
    "id": 3409,
    "nameTh": "น้ำยืน",
    "nameEn": "Nam Yuen",
    "provinceId": 23
  },
  {
    "id": 3410,
    "nameTh": "บุณฑริก",
    "nameEn": "Buntharik",
    "provinceId": 23
  },
  {
    "id": 3411,
    "nameTh": "ตระการพืชผล",
    "nameEn": "Trakan Phuet Phon",
    "provinceId": 23
  },
  {
    "id": 3412,
    "nameTh": "กุดข้าวปุ้น",
    "nameEn": "Kut Khaopun",
    "provinceId": 23
  },
  {
    "id": 3414,
    "nameTh": "ม่วงสามสิบ",
    "nameEn": "Muang Sam Sip",
    "provinceId": 23
  },
  {
    "id": 3415,
    "nameTh": "วารินชำราบ",
    "nameEn": "Warin Chamrap",
    "provinceId": 23
  },
  {
    "id": 3419,
    "nameTh": "พิบูลมังสาหาร",
    "nameEn": "Phibun Mangsahan",
    "provinceId": 23
  },
  {
    "id": 3420,
    "nameTh": "ตาลสุม",
    "nameEn": "Tan Sum",
    "provinceId": 23
  },
  {
    "id": 3421,
    "nameTh": "โพธิ์ไทร",
    "nameEn": "Pho Sai",
    "provinceId": 23
  },
  {
    "id": 3422,
    "nameTh": "สำโรง",
    "nameEn": "Samrong",
    "provinceId": 23
  },
  {
    "id": 3424,
    "nameTh": "ดอนมดแดง",
    "nameEn": "Don Mot Daeng",
    "provinceId": 23
  },
  {
    "id": 3425,
    "nameTh": "สิรินธร",
    "nameEn": "Sirindhorn",
    "provinceId": 23
  },
  {
    "id": 3426,
    "nameTh": "ทุ่งศรีอุดม",
    "nameEn": "Thung Si Udom",
    "provinceId": 23
  },
  {
    "id": 3429,
    "nameTh": "นาเยีย",
    "nameEn": "Na Yia",
    "provinceId": 23
  },
  {
    "id": 3430,
    "nameTh": "นาตาล",
    "nameEn": "Na Tan",
    "provinceId": 23
  },
  {
    "id": 3431,
    "nameTh": "เหล่าเสือโก้ก",
    "nameEn": "Lao Suea Kok",
    "provinceId": 23
  },
  {
    "id": 3432,
    "nameTh": "สว่างวีระวงศ์",
    "nameEn": "Sawang Wirawong",
    "provinceId": 23
  },
  {
    "id": 3433,
    "nameTh": "น้ำขุ่น",
    "nameEn": "Nam Khun",
    "provinceId": 23
  },
  {
    "id": 3501,
    "nameTh": "เมืองยโสธร",
    "nameEn": "Mueang Yasothon",
    "provinceId": 24
  },
  {
    "id": 3502,
    "nameTh": "ทรายมูล",
    "nameEn": "Sai Mun",
    "provinceId": 24
  },
  {
    "id": 3503,
    "nameTh": "กุดชุม",
    "nameEn": "Kut Chum",
    "provinceId": 24
  },
  {
    "id": 3504,
    "nameTh": "คำเขื่อนแก้ว",
    "nameEn": "Kham Khuean Kaeo",
    "provinceId": 24
  },
  {
    "id": 3505,
    "nameTh": "ป่าติ้ว",
    "nameEn": "Pa Tio",
    "provinceId": 24
  },
  {
    "id": 3506,
    "nameTh": "มหาชนะชัย",
    "nameEn": "Maha Chana Chai",
    "provinceId": 24
  },
  {
    "id": 3507,
    "nameTh": "ค้อวัง",
    "nameEn": "Kho Wang",
    "provinceId": 24
  },
  {
    "id": 3508,
    "nameTh": "เลิงนกทา",
    "nameEn": "Loeng Nok Tha",
    "provinceId": 24
  },
  {
    "id": 3509,
    "nameTh": "ไทยเจริญ",
    "nameEn": "Thai Charoen",
    "provinceId": 24
  },
  {
    "id": 3601,
    "nameTh": "เมืองชัยภูมิ",
    "nameEn": "Mueang Chaiyaphum",
    "provinceId": 25
  },
  {
    "id": 3602,
    "nameTh": "บ้านเขว้า",
    "nameEn": "Ban Khwao",
    "provinceId": 25
  },
  {
    "id": 3603,
    "nameTh": "คอนสวรรค์",
    "nameEn": "Khon Sawan",
    "provinceId": 25
  },
  {
    "id": 3604,
    "nameTh": "เกษตรสมบูรณ์",
    "nameEn": "Kaset Sombun",
    "provinceId": 25
  },
  {
    "id": 3605,
    "nameTh": "หนองบัวแดง",
    "nameEn": "Nong Bua Daeng",
    "provinceId": 25
  },
  {
    "id": 3606,
    "nameTh": "จัตุรัส",
    "nameEn": "Chatturat",
    "provinceId": 25
  },
  {
    "id": 3607,
    "nameTh": "บำเหน็จณรงค์",
    "nameEn": "Bamnet Narong",
    "provinceId": 25
  },
  {
    "id": 3608,
    "nameTh": "หนองบัวระเหว",
    "nameEn": "Nong Bua Rawe",
    "provinceId": 25
  },
  {
    "id": 3609,
    "nameTh": "เทพสถิต",
    "nameEn": "Thep Sathit",
    "provinceId": 25
  },
  {
    "id": 3610,
    "nameTh": "ภูเขียว",
    "nameEn": "Phu Khiao",
    "provinceId": 25
  },
  {
    "id": 3611,
    "nameTh": "บ้านแท่น",
    "nameEn": "Ban Thaen",
    "provinceId": 25
  },
  {
    "id": 3612,
    "nameTh": "แก้งคร้อ",
    "nameEn": "Kaeng Khro",
    "provinceId": 25
  },
  {
    "id": 3613,
    "nameTh": "คอนสาร",
    "nameEn": "Khon San",
    "provinceId": 25
  },
  {
    "id": 3614,
    "nameTh": "ภักดีชุมพล",
    "nameEn": "Phakdi Chumphon",
    "provinceId": 25
  },
  {
    "id": 3615,
    "nameTh": "เนินสง่า",
    "nameEn": "Noen Sa-nga",
    "provinceId": 25
  },
  {
    "id": 3616,
    "nameTh": "ซับใหญ่",
    "nameEn": "Sap Yai",
    "provinceId": 25
  },
  {
    "id": 3701,
    "nameTh": "เมืองอำนาจเจริญ",
    "nameEn": "Mueang Amnat Charoen",
    "provinceId": 26
  },
  {
    "id": 3702,
    "nameTh": "ชานุมาน",
    "nameEn": "Chanuman",
    "provinceId": 26
  },
  {
    "id": 3703,
    "nameTh": "ปทุมราชวงศา",
    "nameEn": "Pathum Ratchawongsa",
    "provinceId": 26
  },
  {
    "id": 3704,
    "nameTh": "พนา",
    "nameEn": "Phana",
    "provinceId": 26
  },
  {
    "id": 3705,
    "nameTh": "เสนางคนิคม",
    "nameEn": "Senangkhanikhom",
    "provinceId": 26
  },
  {
    "id": 3706,
    "nameTh": "หัวตะพาน",
    "nameEn": "Hua Taphan",
    "provinceId": 26
  },
  {
    "id": 3707,
    "nameTh": "ลืออำนาจ",
    "nameEn": "Lue Amnat",
    "provinceId": 26
  },
  {
    "id": 3801,
    "nameTh": "เมืองบึงกาฬ",
    "nameEn": "Mueang Bueng Kan",
    "provinceId": 77
  },
  {
    "id": 3802,
    "nameTh": "เซกา",
    "nameEn": "Seka",
    "provinceId": 77
  },
  {
    "id": 3803,
    "nameTh": "โซ่พิสัย",
    "nameEn": "So Phisai",
    "provinceId": 77
  },
  {
    "id": 3804,
    "nameTh": "พรเจริญ",
    "nameEn": "Phon Charoen",
    "provinceId": 77
  },
  {
    "id": 3805,
    "nameTh": "ศรีวิไล",
    "nameEn": "Si Wilai",
    "provinceId": 77
  },
  {
    "id": 3806,
    "nameTh": "บึงโขงหลง",
    "nameEn": "Bueng Khong Long",
    "provinceId": 77
  },
  {
    "id": 3807,
    "nameTh": "ปากคาด",
    "nameEn": "Pak Khat",
    "provinceId": 77
  },
  {
    "id": 3808,
    "nameTh": "บุ่งคล้า",
    "nameEn": "Bung Khla",
    "provinceId": 77
  },
  {
    "id": 3901,
    "nameTh": "เมืองหนองบัวลำภู",
    "nameEn": "Mueang Nong Bua Lam Phu",
    "provinceId": 27
  },
  {
    "id": 3902,
    "nameTh": "นากลาง",
    "nameEn": "Na Klang",
    "provinceId": 27
  },
  {
    "id": 3903,
    "nameTh": "โนนสัง",
    "nameEn": "Non Sang",
    "provinceId": 27
  },
  {
    "id": 3904,
    "nameTh": "ศรีบุญเรือง",
    "nameEn": "Si Bun Rueang",
    "provinceId": 27
  },
  {
    "id": 3905,
    "nameTh": "สุวรรณคูหา",
    "nameEn": "Suwannakhuha",
    "provinceId": 27
  },
  {
    "id": 3906,
    "nameTh": "นาวัง",
    "nameEn": "Na Wang",
    "provinceId": 27
  },
  {
    "id": 4001,
    "nameTh": "เมืองขอนแก่น",
    "nameEn": "Mueang Khon Kaen",
    "provinceId": 28
  },
  {
    "id": 4002,
    "nameTh": "บ้านฝาง",
    "nameEn": "Ban Fang",
    "provinceId": 28
  },
  {
    "id": 4003,
    "nameTh": "พระยืน",
    "nameEn": "Phra Yuen",
    "provinceId": 28
  },
  {
    "id": 4004,
    "nameTh": "หนองเรือ",
    "nameEn": "Nong Ruea",
    "provinceId": 28
  },
  {
    "id": 4005,
    "nameTh": "ชุมแพ",
    "nameEn": "Chum Phae",
    "provinceId": 28
  },
  {
    "id": 4006,
    "nameTh": "สีชมพู",
    "nameEn": "Si Chomphu",
    "provinceId": 28
  },
  {
    "id": 4007,
    "nameTh": "น้ำพอง",
    "nameEn": "Nam Phong",
    "provinceId": 28
  },
  {
    "id": 4008,
    "nameTh": "อุบลรัตน์",
    "nameEn": "Ubolratana",
    "provinceId": 28
  },
  {
    "id": 4009,
    "nameTh": "กระนวน",
    "nameEn": "Kranuan",
    "provinceId": 28
  },
  {
    "id": 4010,
    "nameTh": "บ้านไผ่",
    "nameEn": "Ban Phai",
    "provinceId": 28
  },
  {
    "id": 4011,
    "nameTh": "เปือยน้อย",
    "nameEn": "Pueai Noi",
    "provinceId": 28
  },
  {
    "id": 4012,
    "nameTh": "พล",
    "nameEn": "Phon",
    "provinceId": 28
  },
  {
    "id": 4013,
    "nameTh": "แวงใหญ่",
    "nameEn": "Waeng Yai",
    "provinceId": 28
  },
  {
    "id": 4014,
    "nameTh": "แวงน้อย",
    "nameEn": "Waeng Noi",
    "provinceId": 28
  },
  {
    "id": 4015,
    "nameTh": "หนองสองห้อง",
    "nameEn": "Nong Song Hong",
    "provinceId": 28
  },
  {
    "id": 4016,
    "nameTh": "ภูเวียง",
    "nameEn": "Phu Wiang",
    "provinceId": 28
  },
  {
    "id": 4017,
    "nameTh": "มัญจาคีรี",
    "nameEn": "Mancha Khiri",
    "provinceId": 28
  },
  {
    "id": 4018,
    "nameTh": "ชนบท",
    "nameEn": "Chonnabot",
    "provinceId": 28
  },
  {
    "id": 4019,
    "nameTh": "เขาสวนกวาง",
    "nameEn": "Khao Suan Kwang",
    "provinceId": 28
  },
  {
    "id": 4020,
    "nameTh": "ภูผาม่าน",
    "nameEn": "Phu Pha Man",
    "provinceId": 28
  },
  {
    "id": 4021,
    "nameTh": "ซำสูง",
    "nameEn": "Sam Sung",
    "provinceId": 28
  },
  {
    "id": 4022,
    "nameTh": "โคกโพธิ์ไชย",
    "nameEn": "Khok Pho Chai",
    "provinceId": 28
  },
  {
    "id": 4023,
    "nameTh": "หนองนาคำ",
    "nameEn": "Nong Na Kham",
    "provinceId": 28
  },
  {
    "id": 4024,
    "nameTh": "บ้านแฮด",
    "nameEn": "Ban Haet",
    "provinceId": 28
  },
  {
    "id": 4025,
    "nameTh": "โนนศิลา",
    "nameEn": "Non Sila",
    "provinceId": 28
  },
  {
    "id": 4029,
    "nameTh": "เวียงเก่า",
    "nameEn": "Wiang Kao",
    "provinceId": 28
  },
  {
    "id": 4101,
    "nameTh": "เมืองอุดรธานี",
    "nameEn": "Mueang Udon Thani",
    "provinceId": 29
  },
  {
    "id": 4102,
    "nameTh": "กุดจับ",
    "nameEn": "Kut Chap",
    "provinceId": 29
  },
  {
    "id": 4103,
    "nameTh": "หนองวัวซอ",
    "nameEn": "Nong Wua So",
    "provinceId": 29
  },
  {
    "id": 4104,
    "nameTh": "กุมภวาปี",
    "nameEn": "Kumphawapi",
    "provinceId": 29
  },
  {
    "id": 4105,
    "nameTh": "โนนสะอาด",
    "nameEn": "Non Sa-at",
    "provinceId": 29
  },
  {
    "id": 4106,
    "nameTh": "หนองหาน",
    "nameEn": "Nong Han",
    "provinceId": 29
  },
  {
    "id": 4107,
    "nameTh": "ทุ่งฝน",
    "nameEn": "Thung Fon",
    "provinceId": 29
  },
  {
    "id": 4108,
    "nameTh": "ไชยวาน",
    "nameEn": "Chai Wan",
    "provinceId": 29
  },
  {
    "id": 4109,
    "nameTh": "ศรีธาตุ",
    "nameEn": "Si That",
    "provinceId": 29
  },
  {
    "id": 4110,
    "nameTh": "วังสามหมอ",
    "nameEn": "Wang Sam Mo",
    "provinceId": 29
  },
  {
    "id": 4111,
    "nameTh": "บ้านดุง",
    "nameEn": "Ban Dung",
    "provinceId": 29
  },
  {
    "id": 4117,
    "nameTh": "บ้านผือ",
    "nameEn": "Ban Phue",
    "provinceId": 29
  },
  {
    "id": 4118,
    "nameTh": "น้ำโสม",
    "nameEn": "Nam Som",
    "provinceId": 29
  },
  {
    "id": 4119,
    "nameTh": "เพ็ญ",
    "nameEn": "Phen",
    "provinceId": 29
  },
  {
    "id": 4120,
    "nameTh": "สร้างคอม",
    "nameEn": "Sang Khom",
    "provinceId": 29
  },
  {
    "id": 4121,
    "nameTh": "หนองแสง",
    "nameEn": "Nong Saeng",
    "provinceId": 29
  },
  {
    "id": 4122,
    "nameTh": "นายูง",
    "nameEn": "Na Yung",
    "provinceId": 29
  },
  {
    "id": 4123,
    "nameTh": "พิบูลย์รักษ์",
    "nameEn": "Phibun Rak",
    "provinceId": 29
  },
  {
    "id": 4124,
    "nameTh": "กู่แก้ว",
    "nameEn": "Ku Kaeo",
    "provinceId": 29
  },
  {
    "id": 4125,
    "nameTh": "ประจักษ์ศิลปาคม",
    "nameEn": "rachak-sinlapakhom",
    "provinceId": 29
  },
  {
    "id": 4201,
    "nameTh": "เมืองเลย",
    "nameEn": "Mueang Loei",
    "provinceId": 30
  },
  {
    "id": 4202,
    "nameTh": "นาด้วง",
    "nameEn": "Na Duang",
    "provinceId": 30
  },
  {
    "id": 4203,
    "nameTh": "เชียงคาน",
    "nameEn": "Chiang Khan",
    "provinceId": 30
  },
  {
    "id": 4204,
    "nameTh": "ปากชม",
    "nameEn": "Pak Chom",
    "provinceId": 30
  },
  {
    "id": 4205,
    "nameTh": "ด่านซ้าย",
    "nameEn": "Dan Sai",
    "provinceId": 30
  },
  {
    "id": 4206,
    "nameTh": "นาแห้ว",
    "nameEn": "Na Haeo",
    "provinceId": 30
  },
  {
    "id": 4207,
    "nameTh": "ภูเรือ",
    "nameEn": "Phu Ruea",
    "provinceId": 30
  },
  {
    "id": 4208,
    "nameTh": "ท่าลี่",
    "nameEn": "Tha Li",
    "provinceId": 30
  },
  {
    "id": 4209,
    "nameTh": "วังสะพุง",
    "nameEn": "Wang Saphung",
    "provinceId": 30
  },
  {
    "id": 4210,
    "nameTh": "ภูกระดึง",
    "nameEn": "Phu Kradueng",
    "provinceId": 30
  },
  {
    "id": 4211,
    "nameTh": "ภูหลวง",
    "nameEn": "Phu Luang",
    "provinceId": 30
  },
  {
    "id": 4212,
    "nameTh": "ผาขาว",
    "nameEn": "Pha Khao",
    "provinceId": 30
  },
  {
    "id": 4213,
    "nameTh": "เอราวัณ",
    "nameEn": "Erawan",
    "provinceId": 30
  },
  {
    "id": 4214,
    "nameTh": "หนองหิน",
    "nameEn": "Nong Hin",
    "provinceId": 30
  },
  {
    "id": 4301,
    "nameTh": "เมืองหนองคาย",
    "nameEn": "Mueang Nong Khai",
    "provinceId": 31
  },
  {
    "id": 4302,
    "nameTh": "ท่าบ่อ",
    "nameEn": "Tha Bo",
    "provinceId": 31
  },
  {
    "id": 4305,
    "nameTh": "โพนพิสัย",
    "nameEn": "Phon Phisai",
    "provinceId": 31
  },
  {
    "id": 4307,
    "nameTh": "ศรีเชียงใหม่",
    "nameEn": "Si Chiang Mai",
    "provinceId": 31
  },
  {
    "id": 4308,
    "nameTh": "สังคม",
    "nameEn": "Sangkhom",
    "provinceId": 31
  },
  {
    "id": 4314,
    "nameTh": "สระใคร",
    "nameEn": "Sakhrai",
    "provinceId": 31
  },
  {
    "id": 4315,
    "nameTh": "เฝ้าไร่",
    "nameEn": "Fao Rai",
    "provinceId": 31
  },
  {
    "id": 4316,
    "nameTh": "รัตนวาปี",
    "nameEn": "Rattanawapi",
    "provinceId": 31
  },
  {
    "id": 4317,
    "nameTh": "โพธิ์ตาก",
    "nameEn": "Pho Tak",
    "provinceId": 31
  },
  {
    "id": 4401,
    "nameTh": "เมืองมหาสารคาม",
    "nameEn": "Mueang Maha Sarakham",
    "provinceId": 32
  },
  {
    "id": 4402,
    "nameTh": "แกดำ",
    "nameEn": "Kae Dam",
    "provinceId": 32
  },
  {
    "id": 4403,
    "nameTh": "โกสุมพิสัย",
    "nameEn": "Kosum Phisai",
    "provinceId": 32
  },
  {
    "id": 4404,
    "nameTh": "กันทรวิชัย",
    "nameEn": "Kantharawichai",
    "provinceId": 32
  },
  {
    "id": 4405,
    "nameTh": "เชียงยืน",
    "nameEn": "Kantharawichai",
    "provinceId": 32
  },
  {
    "id": 4406,
    "nameTh": "บรบือ",
    "nameEn": "Borabue",
    "provinceId": 32
  },
  {
    "id": 4407,
    "nameTh": "นาเชือก",
    "nameEn": "Na Chueak",
    "provinceId": 32
  },
  {
    "id": 4408,
    "nameTh": "พยัคฆภูมิพิสัย",
    "nameEn": "Phayakkhaphum Phisai",
    "provinceId": 32
  },
  {
    "id": 4409,
    "nameTh": "วาปีปทุม",
    "nameEn": "Wapi Pathum",
    "provinceId": 32
  },
  {
    "id": 4410,
    "nameTh": "นาดูน",
    "nameEn": "Na Dun",
    "provinceId": 32
  },
  {
    "id": 4411,
    "nameTh": "ยางสีสุราช",
    "nameEn": "Yang Sisurat",
    "provinceId": 32
  },
  {
    "id": 4412,
    "nameTh": "กุดรัง",
    "nameEn": "Kut Rang",
    "provinceId": 32
  },
  {
    "id": 4413,
    "nameTh": "ชื่นชม",
    "nameEn": "Chuen Chom",
    "provinceId": 32
  },
  {
    "id": 4501,
    "nameTh": "เมืองร้อยเอ็ด",
    "nameEn": "Mueang Roi Et",
    "provinceId": 33
  },
  {
    "id": 4502,
    "nameTh": "เกษตรวิสัย",
    "nameEn": "Kaset Wisai",
    "provinceId": 33
  },
  {
    "id": 4503,
    "nameTh": "ปทุมรัตต์",
    "nameEn": "Pathum Rat",
    "provinceId": 33
  },
  {
    "id": 4504,
    "nameTh": "จตุรพักตรพิมาน",
    "nameEn": "Chaturaphak Phiman",
    "provinceId": 33
  },
  {
    "id": 4505,
    "nameTh": "ธวัชบุรี",
    "nameEn": "Thawat Buri",
    "provinceId": 33
  },
  {
    "id": 4506,
    "nameTh": "พนมไพร",
    "nameEn": "Phanom Phrai",
    "provinceId": 33
  },
  {
    "id": 4507,
    "nameTh": "โพนทอง",
    "nameEn": "Phon Thong",
    "provinceId": 33
  },
  {
    "id": 4508,
    "nameTh": "โพธิ์ชัย",
    "nameEn": "Pho Chai",
    "provinceId": 33
  },
  {
    "id": 4509,
    "nameTh": "หนองพอก",
    "nameEn": "Nong Phok",
    "provinceId": 33
  },
  {
    "id": 4510,
    "nameTh": "เสลภูมิ",
    "nameEn": "Selaphum",
    "provinceId": 33
  },
  {
    "id": 4511,
    "nameTh": "สุวรรณภูมิ",
    "nameEn": "Suwannaphum",
    "provinceId": 33
  },
  {
    "id": 4512,
    "nameTh": "เมืองสรวง",
    "nameEn": "Mueang Suang",
    "provinceId": 33
  },
  {
    "id": 4513,
    "nameTh": "โพนทราย",
    "nameEn": "Phon Sai",
    "provinceId": 33
  },
  {
    "id": 4514,
    "nameTh": "อาจสามารถ",
    "nameEn": "At Samat",
    "provinceId": 33
  },
  {
    "id": 4515,
    "nameTh": "เมยวดี",
    "nameEn": "Moei Wadi",
    "provinceId": 33
  },
  {
    "id": 4516,
    "nameTh": "ศรีสมเด็จ",
    "nameEn": "Si Somdet",
    "provinceId": 33
  },
  {
    "id": 4517,
    "nameTh": "จังหาร",
    "nameEn": "Changhan",
    "provinceId": 33
  },
  {
    "id": 4518,
    "nameTh": "เชียงขวัญ",
    "nameEn": "Chiang Khwan",
    "provinceId": 33
  },
  {
    "id": 4519,
    "nameTh": "หนองฮี",
    "nameEn": "Nong Hi",
    "provinceId": 33
  },
  {
    "id": 4520,
    "nameTh": "ทุ่งเขาหลวง",
    "nameEn": "Thung Khao Luangกิ่",
    "provinceId": 33
  },
  {
    "id": 4601,
    "nameTh": "เมืองกาฬสินธุ์",
    "nameEn": "Mueang Kalasin",
    "provinceId": 34
  },
  {
    "id": 4602,
    "nameTh": "นามน",
    "nameEn": "Na Mon",
    "provinceId": 34
  },
  {
    "id": 4603,
    "nameTh": "กมลาไสย",
    "nameEn": "Kamalasai",
    "provinceId": 34
  },
  {
    "id": 4604,
    "nameTh": "ร่องคำ",
    "nameEn": "Rong Kham",
    "provinceId": 34
  },
  {
    "id": 4605,
    "nameTh": "กุฉินารายณ์",
    "nameEn": "Kuchinarai",
    "provinceId": 34
  },
  {
    "id": 4606,
    "nameTh": "เขาวง",
    "nameEn": "Khao Wong",
    "provinceId": 34
  },
  {
    "id": 4607,
    "nameTh": "ยางตลาด",
    "nameEn": "Yang Talat",
    "provinceId": 34
  },
  {
    "id": 4608,
    "nameTh": "ห้วยเม็ก",
    "nameEn": "Huai Mek",
    "provinceId": 34
  },
  {
    "id": 4609,
    "nameTh": "สหัสขันธ์",
    "nameEn": "Sahatsakhan",
    "provinceId": 34
  },
  {
    "id": 4610,
    "nameTh": "คำม่วง",
    "nameEn": "Kham Muang",
    "provinceId": 34
  },
  {
    "id": 4611,
    "nameTh": "ท่าคันโท",
    "nameEn": "Tha Khantho",
    "provinceId": 34
  },
  {
    "id": 4612,
    "nameTh": "หนองกุงศรี",
    "nameEn": "Nong Kung Si",
    "provinceId": 34
  },
  {
    "id": 4613,
    "nameTh": "สมเด็จ",
    "nameEn": "Somdet",
    "provinceId": 34
  },
  {
    "id": 4614,
    "nameTh": "ห้วยผึ้ง",
    "nameEn": "Huai Phueng",
    "provinceId": 34
  },
  {
    "id": 4615,
    "nameTh": "สามชัย",
    "nameEn": "Sam Chai",
    "provinceId": 34
  },
  {
    "id": 4616,
    "nameTh": "นาคู",
    "nameEn": "Na Khu",
    "provinceId": 34
  },
  {
    "id": 4617,
    "nameTh": "ดอนจาน",
    "nameEn": "Don Chan",
    "provinceId": 34
  },
  {
    "id": 4618,
    "nameTh": "ฆ้องชัย",
    "nameEn": "Khong Chai",
    "provinceId": 34
  },
  {
    "id": 4701,
    "nameTh": "เมืองสกลนคร",
    "nameEn": "Mueang Sakon Nakhon",
    "provinceId": 35
  },
  {
    "id": 4702,
    "nameTh": "กุสุมาลย์",
    "nameEn": "Kusuman",
    "provinceId": 35
  },
  {
    "id": 4703,
    "nameTh": "กุดบาก",
    "nameEn": "Kut Bak",
    "provinceId": 35
  },
  {
    "id": 4704,
    "nameTh": "พรรณานิคม",
    "nameEn": "Phanna Nikhom",
    "provinceId": 35
  },
  {
    "id": 4705,
    "nameTh": "พังโคน",
    "nameEn": "Phang Khon",
    "provinceId": 35
  },
  {
    "id": 4706,
    "nameTh": "วาริชภูมิ",
    "nameEn": "Waritchaphum",
    "provinceId": 35
  },
  {
    "id": 4707,
    "nameTh": "นิคมน้ำอูน",
    "nameEn": "Nikhom Nam Un",
    "provinceId": 35
  },
  {
    "id": 4708,
    "nameTh": "วานรนิวาส",
    "nameEn": "Wanon Niwat",
    "provinceId": 35
  },
  {
    "id": 4709,
    "nameTh": "คำตากล้า",
    "nameEn": "Kham Ta Kla",
    "provinceId": 35
  },
  {
    "id": 4710,
    "nameTh": "บ้านม่วง",
    "nameEn": "Ban Muang",
    "provinceId": 35
  },
  {
    "id": 4711,
    "nameTh": "อากาศอำนวย",
    "nameEn": "Akat Amnuai",
    "provinceId": 35
  },
  {
    "id": 4712,
    "nameTh": "สว่างแดนดิน",
    "nameEn": "Sawang Daen Din",
    "provinceId": 35
  },
  {
    "id": 4713,
    "nameTh": "ส่องดาว",
    "nameEn": "Song Dao",
    "provinceId": 35
  },
  {
    "id": 4714,
    "nameTh": "เต่างอย",
    "nameEn": "Tao Ngoi",
    "provinceId": 35
  },
  {
    "id": 4715,
    "nameTh": "โคกศรีสุพรรณ",
    "nameEn": "Khok Si Suphan",
    "provinceId": 35
  },
  {
    "id": 4716,
    "nameTh": "เจริญศิลป์",
    "nameEn": "Charoen Sin",
    "provinceId": 35
  },
  {
    "id": 4717,
    "nameTh": "โพนนาแก้ว",
    "nameEn": "Phon Na Kaeo",
    "provinceId": 35
  },
  {
    "id": 4718,
    "nameTh": "ภูพาน",
    "nameEn": "Phu Phan",
    "provinceId": 35
  },
  {
    "id": 4801,
    "nameTh": "เมืองนครพนม",
    "nameEn": "Mueang Nakhon Phanom",
    "provinceId": 36
  },
  {
    "id": 4802,
    "nameTh": "ปลาปาก",
    "nameEn": "Pla Pak",
    "provinceId": 36
  },
  {
    "id": 4803,
    "nameTh": "ท่าอุเทน",
    "nameEn": "Tha Uthen",
    "provinceId": 36
  },
  {
    "id": 4804,
    "nameTh": "บ้านแพง",
    "nameEn": "Ban Phaeng",
    "provinceId": 36
  },
  {
    "id": 4805,
    "nameTh": "ธาตุพนม",
    "nameEn": "That Phanom",
    "provinceId": 36
  },
  {
    "id": 4806,
    "nameTh": "เรณูนคร",
    "nameEn": "Renu Nakhon",
    "provinceId": 36
  },
  {
    "id": 4807,
    "nameTh": "นาแก",
    "nameEn": "Na Kae",
    "provinceId": 36
  },
  {
    "id": 4808,
    "nameTh": "ศรีสงคราม",
    "nameEn": "Si Songkhram",
    "provinceId": 36
  },
  {
    "id": 4809,
    "nameTh": "นาหว้า",
    "nameEn": "Na Wa",
    "provinceId": 36
  },
  {
    "id": 4810,
    "nameTh": "โพนสวรรค์",
    "nameEn": "Phon Sawan",
    "provinceId": 36
  },
  {
    "id": 4811,
    "nameTh": "นาทม",
    "nameEn": "Na Thom",
    "provinceId": 36
  },
  {
    "id": 4812,
    "nameTh": "วังยาง",
    "nameEn": "Wang Yang",
    "provinceId": 36
  },
  {
    "id": 4901,
    "nameTh": "เมืองมุกดาหาร",
    "nameEn": "Mueang Mukdahan",
    "provinceId": 37
  },
  {
    "id": 4902,
    "nameTh": "นิคมคำสร้อย",
    "nameEn": "Nikhom Kham Soi",
    "provinceId": 37
  },
  {
    "id": 4903,
    "nameTh": "ดอนตาล",
    "nameEn": "Don Tan",
    "provinceId": 37
  },
  {
    "id": 4904,
    "nameTh": "ดงหลวง",
    "nameEn": "Dong Luang",
    "provinceId": 37
  },
  {
    "id": 4905,
    "nameTh": "คำชะอี",
    "nameEn": "Khamcha-i",
    "provinceId": 37
  },
  {
    "id": 4906,
    "nameTh": "หว้านใหญ่",
    "nameEn": "Wan Yai",
    "provinceId": 37
  },
  {
    "id": 4907,
    "nameTh": "หนองสูง",
    "nameEn": "Nong Sung",
    "provinceId": 37
  },
  {
    "id": 5001,
    "nameTh": "เมืองเชียงใหม่",
    "nameEn": "Mueang Chiang Mai",
    "provinceId": 38
  },
  {
    "id": 5002,
    "nameTh": "จอมทอง",
    "nameEn": "Chom Thong",
    "provinceId": 38
  },
  {
    "id": 5003,
    "nameTh": "แม่แจ่ม",
    "nameEn": "Mae Chaem",
    "provinceId": 38
  },
  {
    "id": 5004,
    "nameTh": "เชียงดาว",
    "nameEn": "Chiang Dao",
    "provinceId": 38
  },
  {
    "id": 5005,
    "nameTh": "ดอยสะเก็ด",
    "nameEn": "Doi Saket",
    "provinceId": 38
  },
  {
    "id": 5006,
    "nameTh": "แม่แตง",
    "nameEn": "Mae Taeng",
    "provinceId": 38
  },
  {
    "id": 5007,
    "nameTh": "แม่ริม",
    "nameEn": "Mae Rim",
    "provinceId": 38
  },
  {
    "id": 5008,
    "nameTh": "สะเมิง",
    "nameEn": "Samoeng",
    "provinceId": 38
  },
  {
    "id": 5009,
    "nameTh": "ฝาง",
    "nameEn": "Fang",
    "provinceId": 38
  },
  {
    "id": 5010,
    "nameTh": "แม่อาย",
    "nameEn": "Mae Ai",
    "provinceId": 38
  },
  {
    "id": 5011,
    "nameTh": "พร้าว",
    "nameEn": "Phrao",
    "provinceId": 38
  },
  {
    "id": 5012,
    "nameTh": "สันป่าตอง",
    "nameEn": "San Pa Tong",
    "provinceId": 38
  },
  {
    "id": 5013,
    "nameTh": "สันกำแพง",
    "nameEn": "San Kamphaeng",
    "provinceId": 38
  },
  {
    "id": 5014,
    "nameTh": "สันทราย",
    "nameEn": "San Sai",
    "provinceId": 38
  },
  {
    "id": 5015,
    "nameTh": "หางดง",
    "nameEn": "Hang Dong",
    "provinceId": 38
  },
  {
    "id": 5016,
    "nameTh": "ฮอด",
    "nameEn": "Hot",
    "provinceId": 38
  },
  {
    "id": 5017,
    "nameTh": "ดอยเต่า",
    "nameEn": "Doi Tao",
    "provinceId": 38
  },
  {
    "id": 5018,
    "nameTh": "อมก๋อย",
    "nameEn": "Omkoi",
    "provinceId": 38
  },
  {
    "id": 5019,
    "nameTh": "สารภี",
    "nameEn": "Saraphi",
    "provinceId": 38
  },
  {
    "id": 5020,
    "nameTh": "เวียงแหง",
    "nameEn": "Wiang Haeng",
    "provinceId": 38
  },
  {
    "id": 5021,
    "nameTh": "ไชยปราการ",
    "nameEn": "Chai Prakan",
    "provinceId": 38
  },
  {
    "id": 5022,
    "nameTh": "แม่วาง",
    "nameEn": "Mae Wang",
    "provinceId": 38
  },
  {
    "id": 5023,
    "nameTh": "แม่ออน",
    "nameEn": "Mae On",
    "provinceId": 38
  },
  {
    "id": 5024,
    "nameTh": "ดอยหล่อ",
    "nameEn": "Doi Lo",
    "provinceId": 38
  },
  {
    "id": 5101,
    "nameTh": "เมืองลำพูน",
    "nameEn": "Mueang Lamphun",
    "provinceId": 39
  },
  {
    "id": 5102,
    "nameTh": "แม่ทา",
    "nameEn": "Mae Tha",
    "provinceId": 39
  },
  {
    "id": 5103,
    "nameTh": "บ้านโฮ่ง",
    "nameEn": "Ban Hong",
    "provinceId": 39
  },
  {
    "id": 5104,
    "nameTh": "ลี้",
    "nameEn": "Li",
    "provinceId": 39
  },
  {
    "id": 5105,
    "nameTh": "ทุ่งหัวช้าง",
    "nameEn": "Thung Hua Chang",
    "provinceId": 39
  },
  {
    "id": 5106,
    "nameTh": "ป่าซาง",
    "nameEn": "Pa Sang",
    "provinceId": 39
  },
  {
    "id": 5107,
    "nameTh": "บ้านธิ",
    "nameEn": "Ban Thi",
    "provinceId": 39
  },
  {
    "id": 5108,
    "nameTh": "เวียงหนองล่อง",
    "nameEn": "Wiang Nong Long",
    "provinceId": 39
  },
  {
    "id": 5201,
    "nameTh": "เมืองลำปาง",
    "nameEn": "Mueang Lampang",
    "provinceId": 40
  },
  {
    "id": 5202,
    "nameTh": "แม่เมาะ",
    "nameEn": "Mae Mo",
    "provinceId": 40
  },
  {
    "id": 5203,
    "nameTh": "เกาะคา",
    "nameEn": "Ko Kha",
    "provinceId": 40
  },
  {
    "id": 5204,
    "nameTh": "เสริมงาม",
    "nameEn": "Soem Ngam",
    "provinceId": 40
  },
  {
    "id": 5205,
    "nameTh": "งาว",
    "nameEn": "Ngao",
    "provinceId": 40
  },
  {
    "id": 5206,
    "nameTh": "แจ้ห่ม",
    "nameEn": "Chae Hom",
    "provinceId": 40
  },
  {
    "id": 5207,
    "nameTh": "วังเหนือ",
    "nameEn": "Wang Nuea",
    "provinceId": 40
  },
  {
    "id": 5208,
    "nameTh": "เถิน",
    "nameEn": "Thoen",
    "provinceId": 40
  },
  {
    "id": 5209,
    "nameTh": "แม่พริก",
    "nameEn": "Mae Phrik",
    "provinceId": 40
  },
  {
    "id": 5210,
    "nameTh": "แม่ทะ",
    "nameEn": "Mae Tha",
    "provinceId": 40
  },
  {
    "id": 5211,
    "nameTh": "สบปราบ",
    "nameEn": "Sop Prap",
    "provinceId": 40
  },
  {
    "id": 5212,
    "nameTh": "ห้างฉัตร",
    "nameEn": "Hang Chat",
    "provinceId": 40
  },
  {
    "id": 5213,
    "nameTh": "เมืองปาน",
    "nameEn": "Mueang Pan",
    "provinceId": 40
  },
  {
    "id": 5301,
    "nameTh": "เมืองอุตรดิตถ์",
    "nameEn": "Mueang Uttaradit",
    "provinceId": 41
  },
  {
    "id": 5302,
    "nameTh": "ตรอน",
    "nameEn": "Tron",
    "provinceId": 41
  },
  {
    "id": 5303,
    "nameTh": "ท่าปลา",
    "nameEn": "Tha Pla",
    "provinceId": 41
  },
  {
    "id": 5304,
    "nameTh": "น้ำปาด",
    "nameEn": "Nam Pat",
    "provinceId": 41
  },
  {
    "id": 5305,
    "nameTh": "ฟากท่า",
    "nameEn": "Fak Tha",
    "provinceId": 41
  },
  {
    "id": 5306,
    "nameTh": "บ้านโคก",
    "nameEn": "Ban Khok",
    "provinceId": 41
  },
  {
    "id": 5307,
    "nameTh": "พิชัย",
    "nameEn": "Phichai",
    "provinceId": 41
  },
  {
    "id": 5308,
    "nameTh": "ลับแล",
    "nameEn": "Laplae",
    "provinceId": 41
  },
  {
    "id": 5309,
    "nameTh": "ทองแสนขัน",
    "nameEn": "Thong Saen Khan",
    "provinceId": 41
  },
  {
    "id": 5401,
    "nameTh": "เมืองแพร่",
    "nameEn": "Mueang Phrae",
    "provinceId": 42
  },
  {
    "id": 5402,
    "nameTh": "ร้องกวาง",
    "nameEn": "Rong Kwang",
    "provinceId": 42
  },
  {
    "id": 5403,
    "nameTh": "ลอง",
    "nameEn": "Long",
    "provinceId": 42
  },
  {
    "id": 5404,
    "nameTh": "สูงเม่น",
    "nameEn": "Sung Men",
    "provinceId": 42
  },
  {
    "id": 5405,
    "nameTh": "เด่นชัย",
    "nameEn": "Den Chai",
    "provinceId": 42
  },
  {
    "id": 5406,
    "nameTh": "สอง",
    "nameEn": "Song",
    "provinceId": 42
  },
  {
    "id": 5407,
    "nameTh": "วังชิ้น",
    "nameEn": "Wang Chin",
    "provinceId": 42
  },
  {
    "id": 5408,
    "nameTh": "หนองม่วงไข่",
    "nameEn": "Nong Muang Khai",
    "provinceId": 42
  },
  {
    "id": 5501,
    "nameTh": "เมืองน่าน",
    "nameEn": "Mueang Nan",
    "provinceId": 43
  },
  {
    "id": 5502,
    "nameTh": "แม่จริม",
    "nameEn": "Mae Charim",
    "provinceId": 43
  },
  {
    "id": 5503,
    "nameTh": "บ้านหลวง",
    "nameEn": "Ban Luang",
    "provinceId": 43
  },
  {
    "id": 5504,
    "nameTh": "นาน้อย",
    "nameEn": "Na Noi",
    "provinceId": 43
  },
  {
    "id": 5505,
    "nameTh": "ปัว",
    "nameEn": "Pua",
    "provinceId": 43
  },
  {
    "id": 5506,
    "nameTh": "ท่าวังผา",
    "nameEn": "Tha Wang Pha",
    "provinceId": 43
  },
  {
    "id": 5507,
    "nameTh": "เวียงสา",
    "nameEn": "Wiang Sa",
    "provinceId": 43
  },
  {
    "id": 5508,
    "nameTh": "ทุ่งช้าง",
    "nameEn": "Thung Chang",
    "provinceId": 43
  },
  {
    "id": 5509,
    "nameTh": "เชียงกลาง",
    "nameEn": "Chiang Klang",
    "provinceId": 43
  },
  {
    "id": 5510,
    "nameTh": "นาหมื่น",
    "nameEn": "Na Muen",
    "provinceId": 43
  },
  {
    "id": 5511,
    "nameTh": "สันติสุข",
    "nameEn": "Santi Suk",
    "provinceId": 43
  },
  {
    "id": 5512,
    "nameTh": "บ่อเกลือ",
    "nameEn": "Bo Kluea",
    "provinceId": 43
  },
  {
    "id": 5513,
    "nameTh": "สองแคว",
    "nameEn": "Song Khwae",
    "provinceId": 43
  },
  {
    "id": 5514,
    "nameTh": "ภูเพียง",
    "nameEn": "Phu Phiang",
    "provinceId": 43
  },
  {
    "id": 5515,
    "nameTh": "เฉลิมพระเกียรติ",
    "nameEn": "Chaloem Phra Kiat",
    "provinceId": 43
  },
  {
    "id": 5601,
    "nameTh": "เมืองพะเยา",
    "nameEn": "Mueang Phayao",
    "provinceId": 44
  },
  {
    "id": 5602,
    "nameTh": "จุน",
    "nameEn": "Chun",
    "provinceId": 44
  },
  {
    "id": 5603,
    "nameTh": "เชียงคำ",
    "nameEn": "Chiang Kham",
    "provinceId": 44
  },
  {
    "id": 5604,
    "nameTh": "เชียงม่วน",
    "nameEn": "Chiang Muan",
    "provinceId": 44
  },
  {
    "id": 5605,
    "nameTh": "ดอกคำใต้",
    "nameEn": "Dok Khamtai",
    "provinceId": 44
  },
  {
    "id": 5606,
    "nameTh": "ปง",
    "nameEn": "Pong",
    "provinceId": 44
  },
  {
    "id": 5607,
    "nameTh": "แม่ใจ",
    "nameEn": "Mae Chai",
    "provinceId": 44
  },
  {
    "id": 5608,
    "nameTh": "ภูซาง",
    "nameEn": "Phu Sang",
    "provinceId": 44
  },
  {
    "id": 5609,
    "nameTh": "ภูกามยาว",
    "nameEn": "Phu Kamyao",
    "provinceId": 44
  },
  {
    "id": 5701,
    "nameTh": "เมืองเชียงราย",
    "nameEn": "Mueang Chiang Rai",
    "provinceId": 45
  },
  {
    "id": 5702,
    "nameTh": "เวียงชัย",
    "nameEn": "Wiang Chai",
    "provinceId": 45
  },
  {
    "id": 5703,
    "nameTh": "เชียงของ",
    "nameEn": "Chiang Khong",
    "provinceId": 45
  },
  {
    "id": 5704,
    "nameTh": "เทิง",
    "nameEn": "Thoeng",
    "provinceId": 45
  },
  {
    "id": 5705,
    "nameTh": "พาน",
    "nameEn": "Phan",
    "provinceId": 45
  },
  {
    "id": 5706,
    "nameTh": "ป่าแดด",
    "nameEn": "Pa Daet",
    "provinceId": 45
  },
  {
    "id": 5707,
    "nameTh": "แม่จัน",
    "nameEn": "Mae Chan",
    "provinceId": 45
  },
  {
    "id": 5708,
    "nameTh": "เชียงแสน",
    "nameEn": "Chiang Saen",
    "provinceId": 45
  },
  {
    "id": 5709,
    "nameTh": "แม่สาย",
    "nameEn": "Mae Sai",
    "provinceId": 45
  },
  {
    "id": 5710,
    "nameTh": "แม่สรวย",
    "nameEn": "Mae Suai",
    "provinceId": 45
  },
  {
    "id": 5711,
    "nameTh": "เวียงป่าเป้า",
    "nameEn": "Wiang Pa Pao",
    "provinceId": 45
  },
  {
    "id": 5712,
    "nameTh": "พญาเม็งราย",
    "nameEn": "Phaya Mengrai",
    "provinceId": 45
  },
  {
    "id": 5713,
    "nameTh": "เวียงแก่น",
    "nameEn": "Wiang Kaen",
    "provinceId": 45
  },
  {
    "id": 5714,
    "nameTh": "ขุนตาล",
    "nameEn": "Khun Tan",
    "provinceId": 45
  },
  {
    "id": 5715,
    "nameTh": "แม่ฟ้าหลวง",
    "nameEn": "Mae Fa Luang",
    "provinceId": 45
  },
  {
    "id": 5716,
    "nameTh": "แม่ลาว",
    "nameEn": "Mae Lao",
    "provinceId": 45
  },
  {
    "id": 5717,
    "nameTh": "เวียงเชียงรุ้ง",
    "nameEn": "Wiang Chiang Rung",
    "provinceId": 45
  },
  {
    "id": 5718,
    "nameTh": "ดอยหลวง",
    "nameEn": "Doi Luang",
    "provinceId": 45
  },
  {
    "id": 5801,
    "nameTh": "เมืองแม่ฮ่องสอน",
    "nameEn": "Mueang Mae Hong Son",
    "provinceId": 46
  },
  {
    "id": 5802,
    "nameTh": "ขุนยวม",
    "nameEn": "Khun Yuam",
    "provinceId": 46
  },
  {
    "id": 5803,
    "nameTh": "ปาย",
    "nameEn": "Pai",
    "provinceId": 46
  },
  {
    "id": 5804,
    "nameTh": "แม่สะเรียง",
    "nameEn": "Mae Sariang",
    "provinceId": 46
  },
  {
    "id": 5805,
    "nameTh": "แม่ลาน้อย",
    "nameEn": "Mae La Noi",
    "provinceId": 46
  },
  {
    "id": 5806,
    "nameTh": "สบเมย",
    "nameEn": "Sop Moei",
    "provinceId": 46
  },
  {
    "id": 5807,
    "nameTh": "ปางมะผ้า",
    "nameEn": "Pang Mapha",
    "provinceId": 46
  },
  {
    "id": 6001,
    "nameTh": "เมืองนครสวรรค์",
    "nameEn": "Mueang Nakhon Sawan",
    "provinceId": 47
  },
  {
    "id": 6002,
    "nameTh": "โกรกพระ",
    "nameEn": "Krok Phra",
    "provinceId": 47
  },
  {
    "id": 6003,
    "nameTh": "ชุมแสง",
    "nameEn": "Chum Saeng",
    "provinceId": 47
  },
  {
    "id": 6004,
    "nameTh": "หนองบัว",
    "nameEn": "Nong Bua",
    "provinceId": 47
  },
  {
    "id": 6005,
    "nameTh": "บรรพตพิสัย",
    "nameEn": "Banphot Phisai",
    "provinceId": 47
  },
  {
    "id": 6006,
    "nameTh": "เก้าเลี้ยว",
    "nameEn": "Kao Liao",
    "provinceId": 47
  },
  {
    "id": 6007,
    "nameTh": "ตาคลี",
    "nameEn": "Takhli",
    "provinceId": 47
  },
  {
    "id": 6008,
    "nameTh": "ท่าตะโก",
    "nameEn": "Takhli",
    "provinceId": 47
  },
  {
    "id": 6009,
    "nameTh": "ไพศาลี",
    "nameEn": "Phaisali",
    "provinceId": 47
  },
  {
    "id": 6010,
    "nameTh": "พยุหะคีรี",
    "nameEn": "Phayuha Khiri",
    "provinceId": 47
  },
  {
    "id": 6011,
    "nameTh": "ลาดยาว",
    "nameEn": "Phayuha Khiri",
    "provinceId": 47
  },
  {
    "id": 6012,
    "nameTh": "ตากฟ้า",
    "nameEn": "Tak Fa",
    "provinceId": 47
  },
  {
    "id": 6013,
    "nameTh": "แม่วงก์",
    "nameEn": "Mae Wong",
    "provinceId": 47
  },
  {
    "id": 6014,
    "nameTh": "แม่เปิน",
    "nameEn": "Mae Poen",
    "provinceId": 47
  },
  {
    "id": 6015,
    "nameTh": "ชุมตาบง",
    "nameEn": "Chum Ta Bong",
    "provinceId": 47
  },
  {
    "id": 6101,
    "nameTh": "เมืองอุทัยธานี",
    "nameEn": "Mueang Uthai Thani",
    "provinceId": 48
  },
  {
    "id": 6102,
    "nameTh": "ทัพทัน",
    "nameEn": "Thap Than",
    "provinceId": 48
  },
  {
    "id": 6103,
    "nameTh": "สว่างอารมณ์",
    "nameEn": "Sawang Arom",
    "provinceId": 48
  },
  {
    "id": 6104,
    "nameTh": "หนองฉาง",
    "nameEn": "Nong Chang",
    "provinceId": 48
  },
  {
    "id": 6105,
    "nameTh": "หนองขาหย่าง",
    "nameEn": "Nong Khayang",
    "provinceId": 48
  },
  {
    "id": 6106,
    "nameTh": "บ้านไร่",
    "nameEn": "Ban Rai",
    "provinceId": 48
  },
  {
    "id": 6107,
    "nameTh": "ลานสัก",
    "nameEn": "Lan Sak",
    "provinceId": 48
  },
  {
    "id": 6108,
    "nameTh": "ห้วยคต",
    "nameEn": "Huai Khot",
    "provinceId": 48
  },
  {
    "id": 6201,
    "nameTh": "เมืองกำแพงเพชร",
    "nameEn": "Mueang Kamphaeng Phet",
    "provinceId": 49
  },
  {
    "id": 6202,
    "nameTh": "ไทรงาม",
    "nameEn": "Sai Ngam",
    "provinceId": 49
  },
  {
    "id": 6203,
    "nameTh": "คลองลาน",
    "nameEn": "Khlong Lan",
    "provinceId": 49
  },
  {
    "id": 6204,
    "nameTh": "ขาณุวรลักษบุรี",
    "nameEn": "Khanu Woralaksaburi",
    "provinceId": 49
  },
  {
    "id": 6205,
    "nameTh": "คลองขลุง",
    "nameEn": "Khlong Khlung",
    "provinceId": 49
  },
  {
    "id": 6206,
    "nameTh": "พรานกระต่าย",
    "nameEn": "Phran Kratai",
    "provinceId": 49
  },
  {
    "id": 6207,
    "nameTh": "ลานกระบือ",
    "nameEn": "Lan Krabue",
    "provinceId": 49
  },
  {
    "id": 6208,
    "nameTh": "ทรายทองวัฒนา",
    "nameEn": "Sai Thong Watthana",
    "provinceId": 49
  },
  {
    "id": 6209,
    "nameTh": "ปางศิลาทอง",
    "nameEn": "Pang Sila Thong",
    "provinceId": 49
  },
  {
    "id": 6210,
    "nameTh": "บึงสามัคคี",
    "nameEn": "Bueng Samakkhi",
    "provinceId": 49
  },
  {
    "id": 6211,
    "nameTh": "โกสัมพีนคร",
    "nameEn": "Kosamphi Nakhon",
    "provinceId": 49
  },
  {
    "id": 6301,
    "nameTh": "เมืองตาก",
    "nameEn": "Mueang Tak",
    "provinceId": 50
  },
  {
    "id": 6302,
    "nameTh": "บ้านตาก",
    "nameEn": "Ban Tak",
    "provinceId": 50
  },
  {
    "id": 6303,
    "nameTh": "สามเงา",
    "nameEn": "Sam Ngao",
    "provinceId": 50
  },
  {
    "id": 6304,
    "nameTh": "แม่ระมาด",
    "nameEn": "Mae Ramat",
    "provinceId": 50
  },
  {
    "id": 6305,
    "nameTh": "ท่าสองยาง",
    "nameEn": "Tha Song Yang",
    "provinceId": 50
  },
  {
    "id": 6306,
    "nameTh": "แม่สอด",
    "nameEn": "Mae Sot",
    "provinceId": 50
  },
  {
    "id": 6307,
    "nameTh": "พบพระ",
    "nameEn": "Phop Phra",
    "provinceId": 50
  },
  {
    "id": 6308,
    "nameTh": "อุ้มผาง",
    "nameEn": "Umphang",
    "provinceId": 50
  },
  {
    "id": 6309,
    "nameTh": "วังเจ้า",
    "nameEn": "Wang Chao",
    "provinceId": 50
  },
  {
    "id": 6401,
    "nameTh": "เมืองสุโขทัย",
    "nameEn": "Mueang Sukhothai",
    "provinceId": 51
  },
  {
    "id": 6402,
    "nameTh": "บ้านด่านลานหอย",
    "nameEn": "Ban Dan Lan Hoi",
    "provinceId": 51
  },
  {
    "id": 6403,
    "nameTh": "คีรีมาศ",
    "nameEn": "Khiri Mat",
    "provinceId": 51
  },
  {
    "id": 6404,
    "nameTh": "กงไกรลาศ",
    "nameEn": "Kong Krailat",
    "provinceId": 51
  },
  {
    "id": 6405,
    "nameTh": "ศรีสัชนาลัย",
    "nameEn": "Si Satchanalai",
    "provinceId": 51
  },
  {
    "id": 6406,
    "nameTh": "ศรีสำโรง",
    "nameEn": "Si Samrong",
    "provinceId": 51
  },
  {
    "id": 6407,
    "nameTh": "สวรรคโลก",
    "nameEn": "Sawankhalok",
    "provinceId": 51
  },
  {
    "id": 6408,
    "nameTh": "ศรีนคร",
    "nameEn": "Si Nakhon",
    "provinceId": 51
  },
  {
    "id": 6409,
    "nameTh": "ทุ่งเสลี่ยม",
    "nameEn": "Thung Saliam",
    "provinceId": 51
  },
  {
    "id": 6501,
    "nameTh": "เมืองพิษณุโลก",
    "nameEn": "Mueang Phitsanulok",
    "provinceId": 52
  },
  {
    "id": 6502,
    "nameTh": "นครไทย",
    "nameEn": "Nakhon Thai",
    "provinceId": 52
  },
  {
    "id": 6503,
    "nameTh": "ชาติตระการ",
    "nameEn": "Chat Trakan",
    "provinceId": 52
  },
  {
    "id": 6504,
    "nameTh": "บางระกำ",
    "nameEn": "Bang Rakam",
    "provinceId": 52
  },
  {
    "id": 6505,
    "nameTh": "บางกระทุ่ม",
    "nameEn": "Bang Krathum",
    "provinceId": 52
  },
  {
    "id": 6506,
    "nameTh": "พรหมพิราม",
    "nameEn": "Phrom Phiram",
    "provinceId": 52
  },
  {
    "id": 6507,
    "nameTh": "วัดโบสถ์",
    "nameEn": "Wat Bot",
    "provinceId": 52
  },
  {
    "id": 6508,
    "nameTh": "วังทอง",
    "nameEn": "Wang Thong",
    "provinceId": 52
  },
  {
    "id": 6509,
    "nameTh": "เนินมะปราง",
    "nameEn": "Noen Maprang",
    "provinceId": 52
  },
  {
    "id": 6601,
    "nameTh": "เมืองพิจิตร",
    "nameEn": "Mueang Phichit",
    "provinceId": 53
  },
  {
    "id": 6602,
    "nameTh": "วังทรายพูน",
    "nameEn": "Wang Sai Phun",
    "provinceId": 53
  },
  {
    "id": 6603,
    "nameTh": "โพธิ์ประทับช้าง",
    "nameEn": "Pho Prathap Chang",
    "provinceId": 53
  },
  {
    "id": 6604,
    "nameTh": "ตะพานหิน",
    "nameEn": "Taphan Hin",
    "provinceId": 53
  },
  {
    "id": 6605,
    "nameTh": "บางมูลนาก",
    "nameEn": "Bang Mun Nak",
    "provinceId": 53
  },
  {
    "id": 6606,
    "nameTh": "โพทะเล",
    "nameEn": "Pho Thale",
    "provinceId": 53
  },
  {
    "id": 6607,
    "nameTh": "สามง่าม",
    "nameEn": "Sam Ngam",
    "provinceId": 53
  },
  {
    "id": 6608,
    "nameTh": "ทับคล้อ",
    "nameEn": "Tap Khlo",
    "provinceId": 53
  },
  {
    "id": 6609,
    "nameTh": "สากเหล็ก",
    "nameEn": "Sak Lek",
    "provinceId": 53
  },
  {
    "id": 6610,
    "nameTh": "บึงนาราง",
    "nameEn": "Bueng Na Rang",
    "provinceId": 53
  },
  {
    "id": 6611,
    "nameTh": "ดงเจริญ",
    "nameEn": "Dong Charoen",
    "provinceId": 53
  },
  {
    "id": 6612,
    "nameTh": "วชิรบารมี",
    "nameEn": "Wachirabarami",
    "provinceId": 53
  },
  {
    "id": 6701,
    "nameTh": "เมืองเพชรบูรณ์",
    "nameEn": "Mueang Phetchabun",
    "provinceId": 54
  },
  {
    "id": 6702,
    "nameTh": "ชนแดน",
    "nameEn": "Chon Daen",
    "provinceId": 54
  },
  {
    "id": 6703,
    "nameTh": "หล่มสัก",
    "nameEn": "Lom Sak",
    "provinceId": 54
  },
  {
    "id": 6704,
    "nameTh": "หล่มเก่า",
    "nameEn": "Lom Kao",
    "provinceId": 54
  },
  {
    "id": 6705,
    "nameTh": "วิเชียรบุรี",
    "nameEn": "Wichian Buri",
    "provinceId": 54
  },
  {
    "id": 6706,
    "nameTh": "ศรีเทพ",
    "nameEn": "Si Thep",
    "provinceId": 54
  },
  {
    "id": 6707,
    "nameTh": "หนองไผ่",
    "nameEn": "Nong Phai",
    "provinceId": 54
  },
  {
    "id": 6708,
    "nameTh": "บึงสามพัน",
    "nameEn": "Bueng Sam Phan",
    "provinceId": 54
  },
  {
    "id": 6709,
    "nameTh": "น้ำหนาว",
    "nameEn": "Nam Nao",
    "provinceId": 54
  },
  {
    "id": 6710,
    "nameTh": "วังโป่ง",
    "nameEn": "Wang Pong",
    "provinceId": 54
  },
  {
    "id": 6711,
    "nameTh": "เขาค้อ",
    "nameEn": "Khao Kho",
    "provinceId": 54
  },
  {
    "id": 7001,
    "nameTh": "เมืองราชบุรี",
    "nameEn": "Mueang Ratchaburi",
    "provinceId": 55
  },
  {
    "id": 7002,
    "nameTh": "จอมบึง",
    "nameEn": "Chom Bueng",
    "provinceId": 55
  },
  {
    "id": 7003,
    "nameTh": "สวนผึ้ง",
    "nameEn": "Suan Phueng",
    "provinceId": 55
  },
  {
    "id": 7004,
    "nameTh": "ดำเนินสะดวก",
    "nameEn": "Damnoen Saduak",
    "provinceId": 55
  },
  {
    "id": 7005,
    "nameTh": "บ้านโป่ง",
    "nameEn": "Ban Pong",
    "provinceId": 55
  },
  {
    "id": 7006,
    "nameTh": "บางแพ",
    "nameEn": "Bang Phae",
    "provinceId": 55
  },
  {
    "id": 7007,
    "nameTh": "โพธาราม",
    "nameEn": "Photharam",
    "provinceId": 55
  },
  {
    "id": 7008,
    "nameTh": "ปากท่อ",
    "nameEn": "Pak Tho",
    "provinceId": 55
  },
  {
    "id": 7009,
    "nameTh": "วัดเพลง",
    "nameEn": "Wat Phleng",
    "provinceId": 55
  },
  {
    "id": 7010,
    "nameTh": "บ้านคา",
    "nameEn": "Ban Kha",
    "provinceId": 55
  },
  {
    "id": 7074,
    "nameTh": "ท้องถิ่นเทศบาลตำบลบ้านฆ้อง",
    "nameEn": "Tet Saban Ban Kong",
    "provinceId": 55
  },
  {
    "id": 7101,
    "nameTh": "เมืองกาญจนบุรี",
    "nameEn": "Mueang Kanchanaburi",
    "provinceId": 56
  },
  {
    "id": 7102,
    "nameTh": "ไทรโยค",
    "nameEn": "Sai Yok",
    "provinceId": 56
  },
  {
    "id": 7103,
    "nameTh": "บ่อพลอย",
    "nameEn": "Bo Phloi",
    "provinceId": 56
  },
  {
    "id": 7104,
    "nameTh": "ศรีสวัสดิ์",
    "nameEn": "Si Sawat",
    "provinceId": 56
  },
  {
    "id": 7105,
    "nameTh": "ท่ามะกา",
    "nameEn": "Tha Maka",
    "provinceId": 56
  },
  {
    "id": 7106,
    "nameTh": "ท่าม่วง",
    "nameEn": "Tha Muang",
    "provinceId": 56
  },
  {
    "id": 7107,
    "nameTh": "ทองผาภูมิ",
    "nameEn": "Pha Phum",
    "provinceId": 56
  },
  {
    "id": 7108,
    "nameTh": "สังขละบุรี",
    "nameEn": "Sangkhla Buri",
    "provinceId": 56
  },
  {
    "id": 7109,
    "nameTh": "พนมทวน",
    "nameEn": "Phanom Thuan",
    "provinceId": 56
  },
  {
    "id": 7110,
    "nameTh": "เลาขวัญ",
    "nameEn": "Lao Khwan",
    "provinceId": 56
  },
  {
    "id": 7111,
    "nameTh": "ด่านมะขามเตี้ย",
    "nameEn": "Dan Makham Tia",
    "provinceId": 56
  },
  {
    "id": 7112,
    "nameTh": "หนองปรือ",
    "nameEn": "Nong Prue",
    "provinceId": 56
  },
  {
    "id": 7113,
    "nameTh": "ห้วยกระเจา",
    "nameEn": "Huai Krachao",
    "provinceId": 56
  },
  {
    "id": 7201,
    "nameTh": "เมืองสุพรรณบุรี",
    "nameEn": "Mueang Suphan Buri",
    "provinceId": 57
  },
  {
    "id": 7202,
    "nameTh": "เดิมบางนางบวช",
    "nameEn": "Doem Bang Nang Buat",
    "provinceId": 57
  },
  {
    "id": 7203,
    "nameTh": "ด่านช้าง",
    "nameEn": "Dan Chang",
    "provinceId": 57
  },
  {
    "id": 7204,
    "nameTh": "บางปลาม้า",
    "nameEn": "Bang Pla Ma",
    "provinceId": 57
  },
  {
    "id": 7205,
    "nameTh": "ศรีประจันต์",
    "nameEn": "Si Prachan",
    "provinceId": 57
  },
  {
    "id": 7206,
    "nameTh": "ดอนเจดีย์",
    "nameEn": "Don Chedi",
    "provinceId": 57
  },
  {
    "id": 7207,
    "nameTh": "สองพี่น้อง",
    "nameEn": "Song Phi Nong",
    "provinceId": 57
  },
  {
    "id": 7208,
    "nameTh": "สามชุก",
    "nameEn": "Sam Chuk",
    "provinceId": 57
  },
  {
    "id": 7209,
    "nameTh": "อู่ทอง",
    "nameEn": "U Thong",
    "provinceId": 57
  },
  {
    "id": 7210,
    "nameTh": "หนองหญ้าไซ",
    "nameEn": "Nong Ya Sai",
    "provinceId": 57
  },
  {
    "id": 7301,
    "nameTh": "เมืองนครปฐม",
    "nameEn": "Mueang Nakhon Pathom",
    "provinceId": 58
  },
  {
    "id": 7302,
    "nameTh": "กำแพงแสน",
    "nameEn": "Kamphaeng Saen",
    "provinceId": 58
  },
  {
    "id": 7303,
    "nameTh": "นครชัยศรี",
    "nameEn": "Nakhon Chai Si",
    "provinceId": 58
  },
  {
    "id": 7304,
    "nameTh": "ดอนตูม",
    "nameEn": "Don Tum",
    "provinceId": 58
  },
  {
    "id": 7305,
    "nameTh": "บางเลน",
    "nameEn": "Bang Len",
    "provinceId": 58
  },
  {
    "id": 7306,
    "nameTh": "สามพราน",
    "nameEn": "Sam Phran",
    "provinceId": 58
  },
  {
    "id": 7307,
    "nameTh": "พุทธมณฑล",
    "nameEn": "Phutthamonthon",
    "provinceId": 58
  },
  {
    "id": 7401,
    "nameTh": "เมืองสมุทรสาคร",
    "nameEn": "Mueang Samut Sakhon",
    "provinceId": 59
  },
  {
    "id": 7402,
    "nameTh": "กระทุ่มแบน",
    "nameEn": "Krathum Baen",
    "provinceId": 59
  },
  {
    "id": 7403,
    "nameTh": "บ้านแพ้ว",
    "nameEn": "Ban Phaeo",
    "provinceId": 59
  },
  {
    "id": 7501,
    "nameTh": "เมืองสมุทรสงคราม",
    "nameEn": "Mueang Samut Songkhram",
    "provinceId": 60
  },
  {
    "id": 7502,
    "nameTh": "บางคนที",
    "nameEn": "Bang Khonthi",
    "provinceId": 60
  },
  {
    "id": 7503,
    "nameTh": "อัมพวา",
    "nameEn": "Amphawa",
    "provinceId": 60
  },
  {
    "id": 7601,
    "nameTh": "เมืองเพชรบุรี",
    "nameEn": "Mueang Phetchaburi",
    "provinceId": 61
  },
  {
    "id": 7602,
    "nameTh": "เขาย้อย",
    "nameEn": "Khao Yoi",
    "provinceId": 61
  },
  {
    "id": 7603,
    "nameTh": "หนองหญ้าปล้อง",
    "nameEn": "Nong Ya Plong",
    "provinceId": 61
  },
  {
    "id": 7604,
    "nameTh": "ชะอำ",
    "nameEn": "Cha-am",
    "provinceId": 61
  },
  {
    "id": 7605,
    "nameTh": "ท่ายาง",
    "nameEn": "Tha Yang",
    "provinceId": 61
  },
  {
    "id": 7606,
    "nameTh": "บ้านลาด",
    "nameEn": "Ban Lat",
    "provinceId": 61
  },
  {
    "id": 7607,
    "nameTh": "บ้านแหลม",
    "nameEn": "Ban Laem",
    "provinceId": 61
  },
  {
    "id": 7608,
    "nameTh": "แก่งกระจาน",
    "nameEn": "Kaeng Krachan",
    "provinceId": 61
  },
  {
    "id": 7701,
    "nameTh": "เมืองประจวบคีรีขันธ์",
    "nameEn": "Mueang Prachuap Khiri Khan",
    "provinceId": 62
  },
  {
    "id": 7702,
    "nameTh": "กุยบุรี",
    "nameEn": "Kui Buri",
    "provinceId": 62
  },
  {
    "id": 7703,
    "nameTh": "ทับสะแก",
    "nameEn": "Thap Sakae",
    "provinceId": 62
  },
  {
    "id": 7704,
    "nameTh": "บางสะพาน",
    "nameEn": "Bang Saphan",
    "provinceId": 62
  },
  {
    "id": 7705,
    "nameTh": "บางสะพานน้อย",
    "nameEn": "Bang Saphan Noi",
    "provinceId": 62
  },
  {
    "id": 7706,
    "nameTh": "ปราณบุรี",
    "nameEn": "Pran Buri",
    "provinceId": 62
  },
  {
    "id": 7707,
    "nameTh": "หัวหิน",
    "nameEn": "Hua Hin",
    "provinceId": 62
  },
  {
    "id": 7708,
    "nameTh": "สามร้อยยอด",
    "nameEn": "Sam Roi Yot",
    "provinceId": 62
  },
  {
    "id": 8001,
    "nameTh": "เมืองนครศรีธรรมราช",
    "nameEn": "Mueang Nakhon Si Thammarat",
    "provinceId": 63
  },
  {
    "id": 8002,
    "nameTh": "พรหมคีรี",
    "nameEn": "Phrom Khiri",
    "provinceId": 63
  },
  {
    "id": 8003,
    "nameTh": "ลานสกา",
    "nameEn": "Lan Saka",
    "provinceId": 63
  },
  {
    "id": 8004,
    "nameTh": "ฉวาง",
    "nameEn": "Chawang",
    "provinceId": 63
  },
  {
    "id": 8005,
    "nameTh": "พิปูน",
    "nameEn": "Phipun",
    "provinceId": 63
  },
  {
    "id": 8006,
    "nameTh": "เชียรใหญ่",
    "nameEn": "Chian Yai",
    "provinceId": 63
  },
  {
    "id": 8007,
    "nameTh": "ชะอวด",
    "nameEn": "Cha-uat",
    "provinceId": 63
  },
  {
    "id": 8008,
    "nameTh": "ท่าศาลา",
    "nameEn": "Tha Sala",
    "provinceId": 63
  },
  {
    "id": 8009,
    "nameTh": "ทุ่งสง",
    "nameEn": "Thung Song",
    "provinceId": 63
  },
  {
    "id": 8010,
    "nameTh": "นาบอน",
    "nameEn": "Na Bon",
    "provinceId": 63
  },
  {
    "id": 8011,
    "nameTh": "ทุ่งใหญ่",
    "nameEn": "Thung Yai",
    "provinceId": 63
  },
  {
    "id": 8012,
    "nameTh": "ปากพนัง",
    "nameEn": "Pak Phanang",
    "provinceId": 63
  },
  {
    "id": 8013,
    "nameTh": "ร่อนพิบูลย์",
    "nameEn": "Ron Phibun",
    "provinceId": 63
  },
  {
    "id": 8014,
    "nameTh": "สิชล",
    "nameEn": "Sichon",
    "provinceId": 63
  },
  {
    "id": 8015,
    "nameTh": "ขนอม",
    "nameEn": "Khanom",
    "provinceId": 63
  },
  {
    "id": 8016,
    "nameTh": "หัวไทร",
    "nameEn": "Hua Sai",
    "provinceId": 63
  },
  {
    "id": 8017,
    "nameTh": "บางขัน",
    "nameEn": "Bang Khan",
    "provinceId": 63
  },
  {
    "id": 8018,
    "nameTh": "ถ้ำพรรณรา",
    "nameEn": "Tham Phannara",
    "provinceId": 63
  },
  {
    "id": 8019,
    "nameTh": "จุฬาภรณ์",
    "nameEn": "Chulabhorn",
    "provinceId": 63
  },
  {
    "id": 8020,
    "nameTh": "พระพรหม",
    "nameEn": "Phra Phrom",
    "provinceId": 63
  },
  {
    "id": 8021,
    "nameTh": "นบพิตำ",
    "nameEn": "Nopphitam",
    "provinceId": 63
  },
  {
    "id": 8022,
    "nameTh": "ช้างกลาง",
    "nameEn": "Chang Klang",
    "provinceId": 63
  },
  {
    "id": 8023,
    "nameTh": "เฉลิมพระเกียรติ",
    "nameEn": "Chaloem Phra Kiat",
    "provinceId": 63
  },
  {
    "id": 8101,
    "nameTh": "เมืองกระบี่",
    "nameEn": "Mueang Krabi",
    "provinceId": 64
  },
  {
    "id": 8102,
    "nameTh": "เขาพนม",
    "nameEn": "Khao Phanom",
    "provinceId": 64
  },
  {
    "id": 8103,
    "nameTh": "เกาะลันตา",
    "nameEn": "Ko Lanta",
    "provinceId": 64
  },
  {
    "id": 8104,
    "nameTh": "คลองท่อม",
    "nameEn": "Khlong Thom",
    "provinceId": 64
  },
  {
    "id": 8105,
    "nameTh": "อ่าวลึก",
    "nameEn": "Ao Luek",
    "provinceId": 64
  },
  {
    "id": 8106,
    "nameTh": "ปลายพระยา",
    "nameEn": "Plai Phraya",
    "provinceId": 64
  },
  {
    "id": 8107,
    "nameTh": "ลำทับ",
    "nameEn": "Lam Thap",
    "provinceId": 64
  },
  {
    "id": 8108,
    "nameTh": "เหนือคลอง",
    "nameEn": "Nuea Khlong",
    "provinceId": 64
  },
  {
    "id": 8201,
    "nameTh": "เมืองพังงา",
    "nameEn": "Mueang Phang-nga",
    "provinceId": 65
  },
  {
    "id": 8202,
    "nameTh": "เกาะยาว",
    "nameEn": "Ko Yao",
    "provinceId": 65
  },
  {
    "id": 8203,
    "nameTh": "กะปง",
    "nameEn": "Kapong",
    "provinceId": 65
  },
  {
    "id": 8204,
    "nameTh": "ตะกั่วทุ่ง",
    "nameEn": "Takua Thung",
    "provinceId": 65
  },
  {
    "id": 8205,
    "nameTh": "ตะกั่วป่า",
    "nameEn": "Takua Pa",
    "provinceId": 65
  },
  {
    "id": 8206,
    "nameTh": "คุระบุรี",
    "nameEn": "Khura Buri",
    "provinceId": 65
  },
  {
    "id": 8207,
    "nameTh": "ทับปุด",
    "nameEn": "Thap Put",
    "provinceId": 65
  },
  {
    "id": 8208,
    "nameTh": "ท้ายเหมือง",
    "nameEn": "Thai Mueang",
    "provinceId": 65
  },
  {
    "id": 8301,
    "nameTh": "เมืองภูเก็ต",
    "nameEn": "Mueang Phuket",
    "provinceId": 66
  },
  {
    "id": 8302,
    "nameTh": "กะทู้",
    "nameEn": "Kathu",
    "provinceId": 66
  },
  {
    "id": 8303,
    "nameTh": "ถลาง",
    "nameEn": "Thalang",
    "provinceId": 66
  },
  {
    "id": 8401,
    "nameTh": "เมืองสุราษฎร์ธานี",
    "nameEn": "Mueang Surat Thani",
    "provinceId": 67
  },
  {
    "id": 8402,
    "nameTh": "กาญจนดิษฐ์",
    "nameEn": "Kanchanadit",
    "provinceId": 67
  },
  {
    "id": 8403,
    "nameTh": "ดอนสัก",
    "nameEn": "Don Sak",
    "provinceId": 67
  },
  {
    "id": 8404,
    "nameTh": "เกาะสมุย",
    "nameEn": "Ko Samui",
    "provinceId": 67
  },
  {
    "id": 8405,
    "nameTh": "เกาะพะงัน",
    "nameEn": "Ko Pha-ngan",
    "provinceId": 67
  },
  {
    "id": 8406,
    "nameTh": "ไชยา",
    "nameEn": "Chaiya",
    "provinceId": 67
  },
  {
    "id": 8407,
    "nameTh": "ท่าชนะ",
    "nameEn": "Tha Chana",
    "provinceId": 67
  },
  {
    "id": 8408,
    "nameTh": "คีรีรัฐนิคม",
    "nameEn": "Khiri Rat Nikhom",
    "provinceId": 67
  },
  {
    "id": 8409,
    "nameTh": "บ้านตาขุน",
    "nameEn": "Ban Ta Khun",
    "provinceId": 67
  },
  {
    "id": 8410,
    "nameTh": "พนม",
    "nameEn": "Phanom",
    "provinceId": 67
  },
  {
    "id": 8411,
    "nameTh": "ท่าฉาง",
    "nameEn": "Tha Chang",
    "provinceId": 67
  },
  {
    "id": 8412,
    "nameTh": "บ้านนาสาร",
    "nameEn": "Ban Na San",
    "provinceId": 67
  },
  {
    "id": 8413,
    "nameTh": "บ้านนาเดิม",
    "nameEn": "Ban Na Doem",
    "provinceId": 67
  },
  {
    "id": 8414,
    "nameTh": "เคียนซา",
    "nameEn": "Khian Sa",
    "provinceId": 67
  },
  {
    "id": 8415,
    "nameTh": "เวียงสระ",
    "nameEn": "Wiang Sa",
    "provinceId": 67
  },
  {
    "id": 8416,
    "nameTh": "พระแสง",
    "nameEn": "Phrasaeng",
    "provinceId": 67
  },
  {
    "id": 8417,
    "nameTh": "พุนพิน",
    "nameEn": "Phunphin",
    "provinceId": 67
  },
  {
    "id": 8418,
    "nameTh": "ชัยบุรี",
    "nameEn": "Chai Buri",
    "provinceId": 67
  },
  {
    "id": 8419,
    "nameTh": "วิภาวดี",
    "nameEn": "Vibhavadi",
    "provinceId": 67
  },
  {
    "id": 8501,
    "nameTh": "เมืองระนอง",
    "nameEn": "Mueang Ranong",
    "provinceId": 68
  },
  {
    "id": 8502,
    "nameTh": "ละอุ่น",
    "nameEn": "La-un",
    "provinceId": 68
  },
  {
    "id": 8503,
    "nameTh": "กะเปอร์",
    "nameEn": "Kapoe",
    "provinceId": 68
  },
  {
    "id": 8504,
    "nameTh": "กระบุรี",
    "nameEn": "Kra Buri",
    "provinceId": 68
  },
  {
    "id": 8505,
    "nameTh": "สุขสำราญ",
    "nameEn": "Suk Samran",
    "provinceId": 68
  },
  {
    "id": 8601,
    "nameTh": "เมืองชุมพร",
    "nameEn": "Mueang Chumphon",
    "provinceId": 69
  },
  {
    "id": 8602,
    "nameTh": "ท่าแซะ",
    "nameEn": "Tha Sae",
    "provinceId": 69
  },
  {
    "id": 8603,
    "nameTh": "ปะทิว",
    "nameEn": "Pathio",
    "provinceId": 69
  },
  {
    "id": 8604,
    "nameTh": "หลังสวน",
    "nameEn": "Lang Suan",
    "provinceId": 69
  },
  {
    "id": 8605,
    "nameTh": "ละแม",
    "nameEn": "Lamae",
    "provinceId": 69
  },
  {
    "id": 8606,
    "nameTh": "พะโต๊ะ",
    "nameEn": "Phato",
    "provinceId": 69
  },
  {
    "id": 8607,
    "nameTh": "สวี",
    "nameEn": "Sawi",
    "provinceId": 69
  },
  {
    "id": 8608,
    "nameTh": "ทุ่งตะโก",
    "nameEn": "Thung Tako",
    "provinceId": 69
  },
  {
    "id": 9001,
    "nameTh": "เมืองสงขลา",
    "nameEn": "Mueang Songkhla",
    "provinceId": 70
  },
  {
    "id": 9002,
    "nameTh": "สทิงพระ",
    "nameEn": "Sathing Phra",
    "provinceId": 70
  },
  {
    "id": 9003,
    "nameTh": "จะนะ",
    "nameEn": "Chana",
    "provinceId": 70
  },
  {
    "id": 9004,
    "nameTh": "นาทวี",
    "nameEn": "Na Thawi",
    "provinceId": 70
  },
  {
    "id": 9005,
    "nameTh": "เทพา",
    "nameEn": "Thepha",
    "provinceId": 70
  },
  {
    "id": 9006,
    "nameTh": "สะบ้าย้อย",
    "nameEn": "Saba Yoi",
    "provinceId": 70
  },
  {
    "id": 9007,
    "nameTh": "ระโนด",
    "nameEn": "Ranot",
    "provinceId": 70
  },
  {
    "id": 9008,
    "nameTh": "กระแสสินธุ์",
    "nameEn": "Krasae Sin",
    "provinceId": 70
  },
  {
    "id": 9009,
    "nameTh": "รัตภูมิ",
    "nameEn": "Rattaphum",
    "provinceId": 70
  },
  {
    "id": 9010,
    "nameTh": "สะเดา",
    "nameEn": "Sadao",
    "provinceId": 70
  },
  {
    "id": 9011,
    "nameTh": "หาดใหญ่",
    "nameEn": "Hat Yai",
    "provinceId": 70
  },
  {
    "id": 9012,
    "nameTh": "นาหม่อม",
    "nameEn": "Na Mom",
    "provinceId": 70
  },
  {
    "id": 9013,
    "nameTh": "ควนเนียง",
    "nameEn": "Khuan Niang",
    "provinceId": 70
  },
  {
    "id": 9014,
    "nameTh": "บางกล่ำ",
    "nameEn": "Bang Klam",
    "provinceId": 70
  },
  {
    "id": 9015,
    "nameTh": "สิงหนคร",
    "nameEn": "Singhanakhon",
    "provinceId": 70
  },
  {
    "id": 9016,
    "nameTh": "คลองหอยโข่ง",
    "nameEn": "Khlong Hoi Khong",
    "provinceId": 70
  },
  {
    "id": 9077,
    "nameTh": "ท้องถิ่นเทศบาลตำบลสำนักขาม",
    "nameEn": "Sum Nung Kam",
    "provinceId": 70
  },
  {
    "id": 9101,
    "nameTh": "เมืองสตูล",
    "nameEn": "Mueang Satun",
    "provinceId": 71
  },
  {
    "id": 9102,
    "nameTh": "ควนโดน",
    "nameEn": "Khuan Don",
    "provinceId": 71
  },
  {
    "id": 9103,
    "nameTh": "ควนกาหลง",
    "nameEn": "Khuan Kalong",
    "provinceId": 71
  },
  {
    "id": 9104,
    "nameTh": "ท่าแพ",
    "nameEn": "Tha Phae",
    "provinceId": 71
  },
  {
    "id": 9105,
    "nameTh": "ละงู",
    "nameEn": "La-ngu",
    "provinceId": 71
  },
  {
    "id": 9106,
    "nameTh": "ทุ่งหว้า",
    "nameEn": "Thung Wa",
    "provinceId": 71
  },
  {
    "id": 9107,
    "nameTh": "มะนัง",
    "nameEn": "Manang",
    "provinceId": 71
  },
  {
    "id": 9201,
    "nameTh": "เมืองตรัง",
    "nameEn": "Mueang Trang",
    "provinceId": 72
  },
  {
    "id": 9202,
    "nameTh": "กันตัง",
    "nameEn": "Kantang",
    "provinceId": 72
  },
  {
    "id": 9203,
    "nameTh": "ย่านตาขาว",
    "nameEn": "Yan Ta Khao",
    "provinceId": 72
  },
  {
    "id": 9204,
    "nameTh": "ปะเหลียน",
    "nameEn": "Palian",
    "provinceId": 72
  },
  {
    "id": 9205,
    "nameTh": "สิเกา",
    "nameEn": "Sikao",
    "provinceId": 72
  },
  {
    "id": 9206,
    "nameTh": "ห้วยยอด",
    "nameEn": "Huai Yot",
    "provinceId": 72
  },
  {
    "id": 9207,
    "nameTh": "วังวิเศษ",
    "nameEn": "Wang Wiset",
    "provinceId": 72
  },
  {
    "id": 9208,
    "nameTh": "นาโยง",
    "nameEn": "Na Yong",
    "provinceId": 72
  },
  {
    "id": 9209,
    "nameTh": "รัษฎา",
    "nameEn": "Ratsada",
    "provinceId": 72
  },
  {
    "id": 9210,
    "nameTh": "หาดสำราญ",
    "nameEn": "Hat Samran",
    "provinceId": 72
  },
  {
    "id": 9301,
    "nameTh": "เมืองพัทลุง",
    "nameEn": "Mueang Phatthalung",
    "provinceId": 73
  },
  {
    "id": 9302,
    "nameTh": "กงหรา",
    "nameEn": "Kong Ra",
    "provinceId": 73
  },
  {
    "id": 9303,
    "nameTh": "เขาชัยสน",
    "nameEn": "Khao Chaison",
    "provinceId": 73
  },
  {
    "id": 9304,
    "nameTh": "ตะโหมด",
    "nameEn": "Tamot",
    "provinceId": 73
  },
  {
    "id": 9305,
    "nameTh": "ควนขนุน",
    "nameEn": "Khuan Khanun",
    "provinceId": 73
  },
  {
    "id": 9306,
    "nameTh": "ปากพะยูน",
    "nameEn": "Pak Phayun",
    "provinceId": 73
  },
  {
    "id": 9307,
    "nameTh": "ศรีบรรพต",
    "nameEn": "Si Banphot",
    "provinceId": 73
  },
  {
    "id": 9308,
    "nameTh": "ป่าบอน",
    "nameEn": "Pa Bon",
    "provinceId": 73
  },
  {
    "id": 9309,
    "nameTh": "บางแก้ว",
    "nameEn": "Bang Kaeo",
    "provinceId": 73
  },
  {
    "id": 9310,
    "nameTh": "ป่าพะยอม",
    "nameEn": "Pa Phayom",
    "provinceId": 73
  },
  {
    "id": 9311,
    "nameTh": "ศรีนครินทร์",
    "nameEn": "Srinagarindra",
    "provinceId": 73
  },
  {
    "id": 9401,
    "nameTh": "เมืองปัตตานี",
    "nameEn": "Mueang Pattani",
    "provinceId": 74
  },
  {
    "id": 9402,
    "nameTh": "โคกโพธิ์",
    "nameEn": "Khok Pho",
    "provinceId": 74
  },
  {
    "id": 9403,
    "nameTh": "หนองจิก",
    "nameEn": "Nong Chik",
    "provinceId": 74
  },
  {
    "id": 9404,
    "nameTh": "ปะนาเระ",
    "nameEn": "Panare",
    "provinceId": 74
  },
  {
    "id": 9405,
    "nameTh": "มายอ",
    "nameEn": "Mayo",
    "provinceId": 74
  },
  {
    "id": 9406,
    "nameTh": "ทุ่งยางแดง",
    "nameEn": "Thung Yang Daeng",
    "provinceId": 74
  },
  {
    "id": 9407,
    "nameTh": "สายบุรี",
    "nameEn": "Sai Buri",
    "provinceId": 74
  },
  {
    "id": 9408,
    "nameTh": "ไม้แก่น",
    "nameEn": "Mai Kaen",
    "provinceId": 74
  },
  {
    "id": 9409,
    "nameTh": "ยะหริ่ง",
    "nameEn": "Yaring",
    "provinceId": 74
  },
  {
    "id": 9410,
    "nameTh": "ยะรัง",
    "nameEn": "Yarang",
    "provinceId": 74
  },
  {
    "id": 9411,
    "nameTh": "กะพ้อ",
    "nameEn": "Kapho",
    "provinceId": 74
  },
  {
    "id": 9412,
    "nameTh": "แม่ลาน",
    "nameEn": "Mae Lan",
    "provinceId": 74
  },
  {
    "id": 9501,
    "nameTh": "เมืองยะลา",
    "nameEn": "Mueang Yala",
    "provinceId": 75
  },
  {
    "id": 9502,
    "nameTh": "เบตง",
    "nameEn": "Betong",
    "provinceId": 75
  },
  {
    "id": 9503,
    "nameTh": "บันนังสตา",
    "nameEn": "Bannang Sata",
    "provinceId": 75
  },
  {
    "id": 9504,
    "nameTh": "ธารโต",
    "nameEn": "Than To",
    "provinceId": 75
  },
  {
    "id": 9505,
    "nameTh": "ยะหา",
    "nameEn": "Yaha",
    "provinceId": 75
  },
  {
    "id": 9506,
    "nameTh": "รามัน",
    "nameEn": "Raman",
    "provinceId": 75
  },
  {
    "id": 9507,
    "nameTh": "กาบัง",
    "nameEn": "Kabang",
    "provinceId": 75
  },
  {
    "id": 9508,
    "nameTh": "กรงปินัง",
    "nameEn": "Krong Pinang",
    "provinceId": 75
  },
  {
    "id": 9601,
    "nameTh": "เมืองนราธิวาส",
    "nameEn": "Mueang Narathiwat",
    "provinceId": 76
  },
  {
    "id": 9602,
    "nameTh": "ตากใบ",
    "nameEn": "Tak Bai",
    "provinceId": 76
  },
  {
    "id": 9603,
    "nameTh": "บาเจาะ",
    "nameEn": "Bacho",
    "provinceId": 76
  },
  {
    "id": 9604,
    "nameTh": "ยี่งอ",
    "nameEn": "Yi-ngo",
    "provinceId": 76
  },
  {
    "id": 9605,
    "nameTh": "ระแงะ",
    "nameEn": "Ra-ngae",
    "provinceId": 76
  },
  {
    "id": 9606,
    "nameTh": "รือเสาะ",
    "nameEn": "Rueso",
    "provinceId": 76
  },
  {
    "id": 9607,
    "nameTh": "ศรีสาคร",
    "nameEn": "Si Sakhon",
    "provinceId": 76
  },
  {
    "id": 9608,
    "nameTh": "แว้ง",
    "nameEn": "Waeng",
    "provinceId": 76
  },
  {
    "id": 9609,
    "nameTh": "สุคิริน",
    "nameEn": "Sukhirin",
    "provinceId": 76
  },
  {
    "id": 9610,
    "nameTh": "สุไหงโก-ลก",
    "nameEn": "Su-ngai Kolok",
    "provinceId": 76
  },
  {
    "id": 9611,
    "nameTh": "สุไหงปาดี",
    "nameEn": "Su-ngai Padi",
    "provinceId": 76
  },
  {
    "id": 9612,
    "nameTh": "จะแนะ",
    "nameEn": "Chanae",
    "provinceId": 76
  },
  {
    "id": 9613,
    "nameTh": "เจาะไอร้อง",
    "nameEn": "Cho-airong",
    "provinceId": 76
  }
]
